{
"type": "FeatureCollection",
"name": "dens_cons",
"crs": { "type": "name", "properties": { "name": "urn:ogc:def:crs:OGC:1.3:CRS84" } },
"features": [
{"type":"Feature","properties":{"id":1,"Densidad":"D3"},"geometry":{"type":"MultiPolygon","coordinates":[[[[-100.295873699866917,25.661982906645317],[-100.294570680431391,25.662021406524097],[-100.294298822284574,25.661931072654976],[-100.293817986768929,25.661580722961546],[-100.293912775124369,25.661439401489446],[-100.291681475841386,25.660085721144018],[-100.291796223978011,25.659981049550151],[-100.291619808684061,25.659809395881815],[-100.291507598936207,25.659730600814044],[-100.291428744075262,25.659814496179173],[-100.291280046293622,25.659701244392494],[-100.290276007800784,25.659464962592399],[-100.290216612193419,25.659714057809783],[-100.28999063790215,25.659691504899872],[-100.289795431624242,25.659696298682338],[-100.289796060301853,25.659544900559155],[-100.289684113866656,25.659525431238915],[-100.289650015352649,25.659503228207363],[-100.289248592771287,25.65953848490101],[-100.289157505992009,25.659464616015477],[-100.289023318621858,25.659476030297125],[-100.289023780462657,25.659518988983375],[-100.287573014448313,25.659582939479112],[-100.287559729901702,25.659396884613049],[-100.287345349499375,25.65940286715923],[-100.287347414097539,25.659595158548509],[-100.286219126128714,25.659629655188983],[-100.286314700412518,25.657386564051389],[-100.287503517085668,25.658366273622889],[-100.289494391922858,25.656261936969017],[-100.290651226696212,25.657205077879997],[-100.291991529275748,25.655900247313046],[-100.292141245899828,25.656021161452145],[-100.292041926597761,25.656125867181352],[-100.292414910893399,25.656437625664747],[-100.292442771105641,25.656404645485228],[-100.292605814091502,25.656557663178219],[-100.293516706289523,25.657298373692772],[-100.293599832586906,25.657209665775564],[-100.294950617612429,25.65839399623567],[-100.295061210372708,25.658288165637952],[-100.295300351832793,25.658485002027692],[-100.295185820283876,25.658591890673097],[-100.296131263458804,25.659393652425798],[-100.296025168308475,25.659497909506449],[-100.29610146641258,25.659560653159229],[-100.29620303630648,25.659455413287734],[-100.296692757715874,25.659862277951973],[-100.296706189228871,25.660060605298316],[-100.295871503364268,25.660108934825022],[-100.295873699866917,25.661982906645317]]]]}},
{"type":"Feature","properties":{"id":2,"Densidad":"D3"},"geometry":{"type":"MultiPolygon","coordinates":[[[[-100.297862100856122,25.659398049562203],[-100.297685883969748,25.659106378976958],[-100.297774190241498,25.659061949274168],[-100.296091357422881,25.656380480349632],[-100.296417167810219,25.656219375404422],[-100.296616788385421,25.656495837128734],[-100.29667487143098,25.656486228578945],[-100.296928229992787,25.656351225422988],[-100.297095810865329,25.656633426673594],[-100.297391202172633,25.656488956601819],[-100.297540216435536,25.656724040619139],[-100.297686515753782,25.65670819194499],[-100.29836803441944,25.656831247316472],[-100.298791312826083,25.656638355257616],[-100.298830672446428,25.656752572201164],[-100.298784432659886,25.656929380624632],[-100.298690000622301,25.656917491086304],[-100.298603519504184,25.6572692359501],[-100.29843192580077,25.657358051589988],[-100.298548301369337,25.657543415309679],[-100.298471364043834,25.657896439087288],[-100.298417607565142,25.657888733886871],[-100.298612476498775,25.65823524810482],[-100.298502859613706,25.658303508697763],[-100.298237490753593,25.658441349230294],[-100.298282337801041,25.658506417293108],[-100.298190692069937,25.65893731371354],[-100.298091105779164,25.659005484808983],[-100.298244294845674,25.659255078974542],[-100.297862100856122,25.659398049562203]]]]}},
{"type":"Feature","properties":{"id":3,"Densidad":"D3"},"geometry":{"type":"MultiPolygon","coordinates":[[[[-100.294218661771907,25.651390230973497],[-100.293423605616908,25.652084680741439],[-100.293127487828258,25.651789064942264],[-100.293572949414724,25.651421412859214],[-100.293412428771148,25.651048217874763],[-100.293635589573626,25.6509043954395],[-100.293781641578306,25.651052220720164],[-100.294103893699273,25.650794770636676],[-100.293982111699265,25.650664915876938],[-100.296203929498219,25.648881234804371],[-100.296268990123991,25.648960672491246],[-100.296368530133989,25.648888866121627],[-100.296690983341136,25.64920788242404],[-100.296633355864643,25.649259312998996],[-100.296732521259429,25.649338447588978],[-100.296791799974116,25.649439758713633],[-100.297002738403307,25.649650652918147],[-100.296977248420959,25.649705435200133],[-100.298290692770848,25.651494104393471],[-100.298333906383988,25.651779228913142],[-100.298128431636627,25.65188834912539],[-100.298521117795786,25.652577715919808],[-100.298746125731199,25.652604810902027],[-100.298792698950393,25.652458914431918],[-100.298881089216749,25.652469039240156],[-100.298934859857027,25.652246700563364],[-100.299006491550358,25.652191507430572],[-100.299063412980686,25.652260104985036],[-100.299043626893024,25.652285740414712],[-100.299120255694518,25.652321429107733],[-100.299376963076085,25.652589195843113],[-100.299396847637382,25.652572652126839],[-100.299464951261683,25.652654788934015],[-100.299443099911258,25.652674987218372],[-100.299602871210084,25.652884514150688],[-100.299532602342452,25.653250663474882],[-100.299597951524589,25.653263720712925],[-100.299553789145065,25.653446875736059],[-100.299568228390584,25.653575862576727],[-100.299523190839309,25.653770845799677],[-100.299414668560431,25.653754535759717],[-100.299366552437775,25.653943181498406],[-100.299492206470887,25.653966613181186],[-100.299448063422304,25.654151586522342],[-100.299432055671161,25.654294483318601],[-100.299389274258999,25.654466260205421],[-100.299266132410054,25.654443260724182],[-100.299250846026439,25.654513864663215],[-100.299217659700986,25.654506431271862],[-100.299202427454063,25.654582035671858],[-100.299378336142226,25.654614112816979],[-100.299334468539598,25.654824543035406],[-100.299199891348138,25.654949855175495],[-100.299168206927817,25.655081071033784],[-100.299093813985039,25.655066730218625],[-100.299046538255666,25.655286737948828],[-100.298974176047082,25.655274652163673],[-100.298941714691082,25.655426787941821],[-100.299106600134479,25.655459872721885],[-100.299047759618389,25.65572362798639],[-100.298953259581936,25.655705374352639],[-100.29888252462996,25.656028792122331],[-100.298728741711869,25.656001973181215],[-100.298722418954142,25.65606658711048],[-100.298473083440669,25.656016977109559],[-100.298346749112966,25.656023556348579],[-100.298060342590702,25.655978367020108],[-100.298083944766162,25.655888140088599],[-100.29758731577428,25.655792081702337],[-100.29760694023237,25.65570507261447],[-100.297581252462422,25.655695299047366],[-100.297457386951635,25.655744590943595],[-100.297136462176766,25.655893379673728],[-100.296587462881888,25.655221764683496],[-100.296044754643148,25.655503000005186],[-100.295894620863336,25.655535247784563],[-100.29564124308844,25.655668430785926],[-100.29536271656464,25.655238092898802],[-100.295322837398615,25.655261178350276],[-100.295110325411798,25.654905268424777],[-100.295144230007239,25.654886327725347],[-100.294987503090596,25.654633124130267],[-100.294897713856813,25.654679383787322],[-100.294745555721306,25.654431140330317],[-100.294644451693287,25.654265641620853],[-100.294451390211037,25.653945474028102],[-100.294840056282226,25.653613328307738],[-100.294449563370264,25.653218533387566],[-100.294347247136827,25.653219440539228],[-100.294350131155824,25.653114849562925],[-100.294217823701686,25.652985997697474],[-100.294581886033342,25.652698170125564],[-100.294219650439004,25.652318581360539],[-100.294561260116495,25.651995491593038],[-100.294516103629221,25.651901328477543],[-100.294547927722604,25.651875586894942],[-100.294218661771907,25.651390230973497]]]]}},
{"type":"Feature","properties":{"id":4,"Densidad":"D3"},"geometry":{"type":"MultiPolygon","coordinates":[[[[-100.296908994896938,25.648774045574189],[-100.296780565441878,25.648470128055838],[-100.29661653535176,25.648515229458202],[-100.2964959936306,25.648221698146429],[-100.296211725497756,25.648186942121779],[-100.29615907638842,25.648049201277225],[-100.296311954534659,25.647993288232446],[-100.296229499673686,25.647789435704336],[-100.29600152032279,25.647857835701668],[-100.295918977691798,25.647645800372658],[-100.295750283783121,25.647584103566611],[-100.295691927226017,25.647428682503481],[-100.295787419110809,25.647400102541386],[-100.295738394473929,25.647272785886919],[-100.295607913740909,25.647312587452081],[-100.295555339384833,25.64718166516499],[-100.2954043746998,25.647228922410932],[-100.295346515394783,25.647073042140146],[-100.295261403508874,25.647087436128007],[-100.295034502506638,25.646883954802302],[-100.294902147867347,25.646517785508852],[-100.294735350400472,25.646399241570069],[-100.294677251454459,25.646244272369248],[-100.294586023107499,25.646272813790304],[-100.294483284171534,25.646024813258286],[-100.294411000897483,25.646042730068242],[-100.294345959755802,25.645895096371326],[-100.294240702118742,25.64580873986699],[-100.294176443023673,25.645663826944553],[-100.294225444731623,25.645649753665658],[-100.294124224617704,25.645379689675835],[-100.294364669800373,25.645304817344304],[-100.294538241342593,25.645400570094498],[-100.294671203484128,25.645358474363817],[-100.294788483191084,25.645629304805283],[-100.294894491069897,25.645599268314218],[-100.29478022026278,25.645328411283803],[-100.295155150853731,25.645213246744966],[-100.295120125179452,25.645128086469125],[-100.295372123662943,25.645054928571387],[-100.295421093776696,25.645130872428911],[-100.296830789370162,25.644694642576287],[-100.296950128353132,25.64496999921376],[-100.296903319475405,25.645094074955896],[-100.297018764873926,25.645380377263184],[-100.29667470385931,25.645474359346025],[-100.297066197522014,25.646427428832435],[-100.296941841468907,25.646592882982098],[-100.297054746652364,25.646852839049849],[-100.296760922296187,25.646954558573515],[-100.296801269615088,25.647067858324686],[-100.297042198117836,25.646991158725179],[-100.297142531324596,25.647271230186075],[-100.297043543976201,25.6473012059691],[-100.297131501861557,25.64750364523637],[-100.296938994368375,25.647559001848531],[-100.29697349109,25.647641438506174],[-100.296990985533981,25.647635827525338],[-100.297104270471721,25.647907600551193],[-100.297133565198308,25.648019179832719],[-100.297003629949231,25.648063069496473],[-100.297200296536175,25.648531412092247],[-100.297105261434766,25.648555897244247],[-100.297159032902087,25.648704538899949],[-100.296908994896938,25.648774045574189]]]]}},
{"type":"Feature","properties":{"id":5,"Densidad":"D3"},"geometry":{"type":"MultiPolygon","coordinates":[[[[-100.296824956171804,25.643946142053583],[-100.296238694273484,25.644121985911067],[-100.29626783977308,25.644219927822],[-100.295960572059258,25.644314793896967],[-100.295925461007684,25.644221754273783],[-100.293703889292402,25.644904610165721],[-100.293613922237256,25.644685668008769],[-100.293386737753522,25.64464130783788],[-100.293281273149731,25.644349458363372],[-100.293191275134689,25.644375714825998],[-100.293098415873942,25.644136490973594],[-100.293009346253214,25.644062719864188],[-100.292887668232837,25.643755556078979],[-100.292992525033256,25.643711892200916],[-100.292826175831934,25.643355114229788],[-100.292729611782704,25.643330509628179],[-100.291853684990983,25.642472639542341],[-100.29132906621723,25.642193588306032],[-100.292007311128941,25.641089195722589],[-100.292493563038107,25.640786653811581],[-100.292997741244307,25.640658530744812],[-100.293383989142768,25.640756948407876],[-100.29356349593138,25.641031775437984],[-100.293494024090279,25.641286985249227],[-100.29359525196891,25.641744358679954],[-100.29374101777249,25.641866727601197],[-100.294152205171827,25.642044937531825],[-100.294843451191426,25.642147922148364],[-100.295028004581383,25.64214628569496],[-100.296331147815721,25.642063801264506],[-100.296410912508406,25.642390428685697],[-100.296711540082484,25.642362300201288],[-100.29685573316921,25.642895667666128],[-100.296466620997663,25.643090068312045],[-100.296690003423748,25.643618186510938],[-100.296843179680579,25.643683202647811],[-100.29688551221696,25.643794666294585],[-100.296783548040821,25.643827396062772],[-100.296824956171804,25.643946142053583]]]]}},
{"type":"Feature","properties":{"id":6,"Densidad":"D3"},"geometry":{"type":"MultiPolygon","coordinates":[[[[-100.293410165505634,25.645263644176442],[-100.293046497794805,25.645516534066971],[-100.292898630129713,25.645478744936316],[-100.292124691514786,25.645756101890282],[-100.292130085195438,25.645651488596787],[-100.291921001828854,25.645634698622967],[-100.29191845151837,25.645654043085589],[-100.291940053550874,25.645657261711289],[-100.291985254687873,25.64580257163767],[-100.291819288590261,25.645854049598448],[-100.291814410445781,25.645866822475515],[-100.291556159764752,25.64601186164256],[-100.291327759990963,25.646227559130132],[-100.291373396177534,25.646459927611478],[-100.291255496787187,25.646503705735253],[-100.29118773002827,25.646545221944475],[-100.290783338111567,25.646673366665045],[-100.290825742270073,25.646745278460195],[-100.290485164506208,25.646977423836507],[-100.290547269903982,25.647062345951319],[-100.290290321268856,25.64723555871657],[-100.288994016541267,25.645159332057265],[-100.288922768742978,25.645063578696327],[-100.288566740897053,25.644417504358664],[-100.288186878341136,25.64454087900484],[-100.288035755524703,25.644293072929297],[-100.287489920423425,25.64465431903033],[-100.287737616830526,25.644927642819255],[-100.28783422796036,25.644863142144345],[-100.287850266730288,25.64486209142871],[-100.288214653762751,25.646473734980205],[-100.288474013119853,25.646431438921734],[-100.288513713512955,25.646672044228513],[-100.288517035135953,25.646701111445392],[-100.288546416488856,25.646728130168334],[-100.288992293902879,25.646959694847897],[-100.288801310101391,25.6471105003335],[-100.289020944873755,25.648132395420994],[-100.288815691791427,25.648262413803174],[-100.288715937084561,25.648454694817399],[-100.288495439049896,25.648473007570171],[-100.288364459532076,25.648746943234549],[-100.28827227872803,25.64871047666384],[-100.288132679635083,25.648975850156059],[-100.287920906700151,25.649012725055897],[-100.287721063732221,25.649273173966137],[-100.287545606829113,25.649165382005492],[-100.287375350463464,25.649285087899607],[-100.287440475967216,25.649464548419051],[-100.287203435778395,25.649530741627029],[-100.287264422045368,25.649698418251024],[-100.287082418680583,25.649751850941467],[-100.286985247288726,25.649764527956076],[-100.286957980546489,25.64928012924965],[-100.286592444263988,25.649291079470618],[-100.28648944757137,25.649158097497303],[-100.286483232015499,25.64916315322882],[-100.286213967581659,25.648843645025959],[-100.286001730110854,25.64872026296942],[-100.285975840452622,25.648738221693705],[-100.285740765647517,25.648472967424858],[-100.285711230516782,25.648361387667922],[-100.285529335071359,25.648331164880176],[-100.285660422663128,25.647996537045604],[-100.28564833965855,25.647992324417828],[-100.285525138180574,25.647916121448787],[-100.285330106872962,25.648064230380083],[-100.285121348117684,25.647820565765219],[-100.285189585246627,25.647775865721599],[-100.284895747724377,25.647409289220889],[-100.284802643632844,25.647473757178084],[-100.28458888146254,25.64723104501266],[-100.284613193426964,25.647206280909611],[-100.284325503927562,25.646851469528865],[-100.284216073426578,25.646936993863083],[-100.284047252290208,25.646534763757479],[-100.283737655774843,25.646101037444069],[-100.283503371200581,25.646143104715115],[-100.283473256156157,25.646469341874539],[-100.283532051201433,25.646479736286814],[-100.283682036098938,25.646481145638052],[-100.283676819350305,25.646649860636682],[-100.283685378293839,25.646746622390481],[-100.283775613916291,25.646742192016227],[-100.283790005461356,25.646915280953277],[-100.283839159864797,25.64691530341706],[-100.283853658121259,25.647145220620189],[-100.283974998425364,25.647141425893089],[-100.283988718513129,25.647298608515914],[-100.284037877936242,25.647299085497671],[-100.284072730436222,25.647462447143401],[-100.284190798493938,25.647527785323557],[-100.284296360232247,25.648017861235545],[-100.284586546880746,25.647949841323832],[-100.284688497990203,25.648289919552038],[-100.284913778122302,25.648343402563587],[-100.284960264807324,25.648515754220206],[-100.284866166613,25.648534312993554],[-100.284915842679752,25.648723458034734],[-100.284085117271843,25.64890079909307],[-100.283990993580758,25.649010738895434],[-100.284109025348044,25.649658235704244],[-100.284092201798856,25.649679751440249],[-100.28283038200442,25.649883001787217],[-100.282812180771103,25.649869522692626],[-100.282673203713415,25.64919364250045],[-100.282567182743122,25.649223064220568],[-100.281970063016885,25.649357424171328],[-100.281865533024188,25.649463816961099],[-100.281580418705857,25.649506327583964],[-100.281911048841707,25.651157079695484],[-100.282095778927669,25.652046539633037],[-100.282388019281527,25.652107015538594],[-100.28216986922979,25.652158031948485],[-100.28212903129176,25.652154147338631],[-100.282141883494234,25.652292849274545],[-100.281897985786344,25.652250133780377],[-100.281875342597957,25.652133946373961],[-100.281771943492629,25.652096058782721],[-100.2815651032939,25.652141519397269],[-100.281522178351864,25.652004899893026],[-100.281340633400788,25.652039226943625],[-100.281350014454318,25.652291314783689],[-100.281267247106797,25.652306589448873],[-100.280628853904062,25.652147310040366],[-100.280355036431189,25.65218365757903],[-100.280280634872469,25.652105506838076],[-100.280164552153437,25.652007111467316],[-100.279875996867872,25.652041162613635],[-100.279688578821606,25.652151917606858],[-100.279592131662994,25.652013341874035],[-100.279485600288766,25.65205792037797],[-100.278241824228473,25.652325834941863],[-100.278264153894384,25.652412929177494],[-100.277970608723876,25.652480966298274],[-100.2774392278383,25.651693947102437],[-100.276802640574118,25.651829237893502],[-100.276753803507873,25.651639324766762],[-100.276624353861692,25.651667128607652],[-100.276536309435556,25.651375113952348],[-100.276406204184553,25.651404135684103],[-100.276301625327378,25.651003759339513],[-100.276087052649601,25.650951078768511],[-100.276032757712642,25.65075090799073],[-100.275889310729653,25.650783076746155],[-100.275850441984232,25.650587014333375],[-100.27550895775029,25.65067486306874],[-100.275283693357025,25.650371316446687],[-100.275638706072016,25.650297898362304],[-100.275894566977854,25.650208372892401],[-100.276112231100569,25.650048864040901],[-100.27645023010092,25.649633707645595],[-100.276639466544339,25.649316839970918],[-100.276805858015237,25.648864387691333],[-100.277840137684663,25.648520728856035],[-100.278379152630706,25.648142604352465],[-100.278558948533998,25.647944628092322],[-100.278758359248741,25.647579174429698],[-100.279083355913073,25.647200496884743],[-100.279231335914403,25.647029470418758],[-100.279922182739568,25.646591817067904],[-100.280956433158323,25.646248137138752],[-100.283223678518638,25.645636600246668],[-100.283495526680568,25.645042580832971],[-100.283979224708531,25.64424787183065],[-100.28429271658257,25.644046288551163],[-100.284576187129019,25.644038945820451],[-100.285229966270023,25.644139880712199],[-100.285599288386024,25.644156027507481],[-100.285825549402944,25.643927324738225],[-100.286098934266235,25.644351666760677],[-100.286364654205798,25.644185658187343],[-100.286505989445914,25.644394150752131],[-100.286101728035106,25.644612298779492],[-100.286347354151502,25.644942320914105],[-100.286834297665507,25.644576748511401],[-100.287043283282316,25.644857385702707],[-100.287994026501281,25.644213728590632],[-100.287596515509932,25.643564986572606],[-100.288185138318354,25.642580211756165],[-100.288652046895322,25.642716725711242],[-100.289669860894591,25.643338165658665],[-100.290479503312824,25.643505592355879],[-100.290813655042641,25.643360793552866],[-100.291098134927125,25.643074587619953],[-100.291458643703123,25.643452685541924],[-100.291653169620545,25.643662824115903],[-100.291676407066944,25.643647161054766],[-100.291864905756086,25.643856443366285],[-100.291949955925574,25.643929644584791],[-100.292610329146882,25.644766387061317],[-100.292604159449752,25.644938595996454],[-100.292989245245849,25.64492791265366],[-100.293074236282763,25.644871391784999],[-100.293410165505634,25.645263644176442]]]]}}
]
}
