{"type":"FeatureCollection","features":[{"type":"Feature","geometry":{"type":"Point","coordinates":[-100.27632,25.6535]},"properties":{"nombre":"Torres Nuevo Sur","estatus":"Construido","ano_comercialización":2014,"Esquema_comercializacion":"Renta","clasificacion":"A","ocupacion":"98 %","niveles":8,"ubicacion":"Av. Revolución 2703, Col. Primavera, Monterrey, N.L.","informes":"Oficina distritotec:+52 81 8358 2000"}},{"type":"Feature","geometry":{"type":"Point","coordinates":[-100.2858,25.6625]},"properties":{"nombre":"Arevo","estatus":"En Construcción","ano_comercialización":2025,"Esquema_comercializacion":"Preventa","clasificacion":"A+","ocupacion":"81 %","niveles":5,"ubicacion":"Av. Jesús Cantú Leal 650 (Av. Revolución), Col. Buenos Aires, Monterrey, N.L.","informes":"Oficina distritotec:+52 81 8358 2000"}},{"type":"Feature","geometry":{"type":"Point","coordinates":[-100.2805,25.6322]},"properties":{"nombre":"Torre Vetro","estatus":"Construido","ano_comercialización":2021,"Esquema_comercializacion":"Mixto","clasificacion":"A+","ocupacion":"14 %","niveles":13,"ubicacion":"Av. Eugenio Garza Sada Sur 3890, Col. Contry, Monterrey, N.L.","informes":"Oficina distritotec:+52 81 8358 2000"}},{"type":"Feature","geometry":{"type":"Point","coordinates":[-100.2815,25.6335]},"properties":{"nombre":"Micropolis","estatus":"Construido","ano_comercialización":2014,"Esquema_comercializacion":"Renta","clasificacion":"A","ocupacion":"95 %","niveles":6,"ubicacion":"Av. Eugenio Garza Sada 3820, Col. Más Palomas, Monterrey, N.L.","informes":"Oficina distritotec:+52 81 8358 2000"}},{"type":"Feature","geometry":{"type":"Point","coordinates":[-100.27305,25.63749]},"properties":{"nombre":"Plaza Tres800","estatus":"Construido","ano_comercialización":2015,"Esquema_comercializacion":"Renta","clasificacion":"A","ocupacion":"97 %","niveles":6,"ubicacion":"Av. Revolución 3800, Col. Torremolinos, Monterrey, N.L.","informes":"Oficina distritotec:+52 81 8358 2000"}},{"type":"Feature","geometry":{"type":"Point","coordinates":[-100.276,25.6515]},"properties":{"nombre":"Nove","estatus":"Construido","ano_comercialización":2016,"Esquema_comercializacion":"Renta","clasificacion":"A","ocupacion":"72 %","niveles":8,"ubicacion":"Guadalajara 154, Lth, Distrito Tec, Monterrey, N.L.","informes":"Oficina distritotec:+52 81 8358 2000"}},{"type":"Feature","geometry":{"type":"Point","coordinates":[-100.2845,25.661]},"properties":{"nombre":"Torre Livo","estatus":"Construido","ano_comercialización":2022,"Esquema_comercializacion":"Venta","clasificacion":"A+","ocupacion":"95 %","niveles":2,"ubicacion":"Av. Revolución, Col. Buenos Aires, Monterrey, N.L.","informes":"Oficina distritotec:+52 81 8358 2000"}}]}