{"type":"FeatureCollection","features":[{"type":"Feature","geometry":{"type":"Point","coordinates":[-100.291214,25.651268]},"properties":{"ID":227879,"sensor":"rectoria"}},{"type":"Feature","geometry":{"type":"Point","coordinates":[-100.28977,25.654285]},"properties":{"ID":286240,"sensor":"naranjos"}},{"type":"Feature","geometry":{"type":"Point","coordinates":[-100.29044,25.644045]},"properties":{"ID":284960,"sensor":"barranquilla"}},{"type":"Feature","geometry":{"type":"Point","coordinates":[-100.30304,25.640884]},"properties":{"ID":286238,"sensor":"oasis"}}]}