{"type":"FeatureCollection","name":"innovacion_conocimiento","crs":{"type":"name","properties":{"name":"urn:ogc:def:crs:OGC:1.3:CRS84"}},"features":[{"type":"Feature","properties":{"id":1,"Nombre":"EL COLEGIO DE LA FRONTERA NORTE"},"geometry":{"type":"Point","coordinates":[-100.29379,25.64586]}},{"type":"Feature","properties":{"id":2,"Nombre":"ACEE CONSULTORES"},"geometry":{"type":"Point","coordinates":[-100.27709,25.65518]}},{"type":"Feature","properties":{"id":3,"Nombre":"AGENCIA DE PUBLICIDAD CAFETERA"},"geometry":{"type":"Point","coordinates":[-100.28811,25.64518]}},{"type":"Feature","properties":{"id":4,"Nombre":"AGENCIA PROMOTORA DE PUBLICACIONES"},"geometry":{"type":"Point","coordinates":[-100.29898,25.65767]}},{"type":"Feature","properties":{"id":5,"Nombre":"CONTPAQI SOFWARE EMPRESARIAL"},"geometry":{"type":"Point","coordinates":[-100.28115,25.6601]}},{"type":"Feature","properties":{"id":6,"Nombre":"CYTRUM"},"geometry":{"type":"Point","coordinates":[-100.29774,25.65429]}},{"type":"Feature","properties":{"id":7,"Nombre":"FAUSTO TOVAR FOTOGRAFIA"},"geometry":{"type":"Point","coordinates":[-100.28734,25.64815]}},{"type":"Feature","properties":{"id":8,"Nombre":"FINITO LAB"},"geometry":{"type":"Point","coordinates":[-100.29344,25.65707]}},{"type":"Feature","properties":{"id":9,"Nombre":"G & MAR ARQUITECTOS"},"geometry":{"type":"Point","coordinates":[-100.29044,25.6561]}},{"type":"Feature","properties":{"id":10,"Nombre":"GRABBO RECONOCIMIENTOS"},"geometry":{"type":"Point","coordinates":[-100.28451,25.63981]}},{"type":"Feature","properties":{"id":11,"Nombre":"IRS MULTIMEDIA  IMPULSORA DE RENTAS Y SERVICIOS"},"geometry":{"type":"Point","coordinates":[-100.29074,25.65597]}},{"type":"Feature","properties":{"id":12,"Nombre":"JSP SOLUCIONES"},"geometry":{"type":"Point","coordinates":[-100.28257,25.65273]}},{"type":"Feature","properties":{"id":13,"Nombre":"JURADO GARCIA Y ASOCIADOS"},"geometry":{"type":"Point","coordinates":[-100.28786,25.65975]}},{"type":"Feature","properties":{"id":14,"Nombre":"NOTARIA PUBLICA NO 5"},"geometry":{"type":"Point","coordinates":[-100.27636,25.65145]}},{"type":"Feature","properties":{"id":15,"Nombre":"PEQUEÑO RAMIREZ Y ASOCIADOS"},"geometry":{"type":"Point","coordinates":[-100.29881,25.65191]}},{"type":"Feature","properties":{"id":16,"Nombre":"SALAZAR RIOS Y ASOCIADOS DESPACHO CONTABLE"},"geometry":{"type":"Point","coordinates":[-100.27382,25.64888]}},{"type":"Feature","properties":{"id":17,"Nombre":"SISTEMAS OPTIMOS CONSTRUCTIVOS. SOCSA"},"geometry":{"type":"Point","coordinates":[-100.29093,25.64738]}},{"type":"Feature","properties":{"id":18,"Nombre":"SOLUCIONES CREATIVAS Empresariales y Profesionales En Promotoria"},"geometry":{"type":"Point","coordinates":[-100.29789,25.6442]}},{"type":"Feature","properties":{"id":19,"Nombre":"SOLUCIONES VISUALES IVE"},"geometry":{"type":"Point","coordinates":[-100.27382,25.64883]}},{"type":"Feature","properties":{"id":20,"Nombre":"LIDAG"},"geometry":{"type":"Point","coordinates":[-100.28212,25.64983]}},{"type":"Feature","properties":{"id":21,"Nombre":"TECNIPOL"},"geometry":{"type":"Point","coordinates":[-100.27867,25.65969]}},{"type":"Feature","properties":{"id":22,"Nombre":"KDS Brit. BRIT Sistemas Integrales de Información"},"geometry":{"type":"Point","coordinates":[-100.28276,25.63393]}},{"type":"Feature","properties":{"id":23,"Nombre":"INFOFIN"},"geometry":{"type":"Point","coordinates":[-100.29351,25.65616]}},{"type":"Feature","properties":{"id":24,"Nombre":"Empresoft"},"geometry":{"type":"Point","coordinates":[-100.2868,25.64992]}},{"type":"Feature","properties":{"id":25,"Nombre":"BACIT-TECHNOLOGIES"},"geometry":{"type":"Point","coordinates":[-100.29503,25.65519]}},{"type":"Feature","properties":{"id":26,"Nombre":"CTE CONSULTORES EN TELEINFORMATICA EMPRESARIAL"},"geometry":{"type":"Point","coordinates":[-100.29839,25.65313]}},{"type":"Feature","properties":{"id":27,"Nombre":"DITEM"},"geometry":{"type":"Point","coordinates":[-100.28779,25.64502]}},{"type":"Feature","properties":{"id":28,"Nombre":"EXPER TEC"},"geometry":{"type":"Point","coordinates":[-100.28677,25.64357]}},{"type":"Feature","properties":{"id":29,"Nombre":"NSG"},"geometry":{"type":"Point","coordinates":[-100.29437,25.64978]}},{"type":"Feature","properties":{"id":30,"Nombre":"PROTEGIDO POR HOGAR INTELIGENTE"},"geometry":{"type":"Point","coordinates":[-100.27376,25.6489]}},{"type":"Feature","properties":{"id":31,"Nombre":"Solar BM (Soluciones en Energía)"},"geometry":{"type":"Point","coordinates":[-100.28559,25.64109]}},{"type":"Feature","properties":{"id":32,"Nombre":"INDUSTRIAS SCORPIO DEL NORTE"},"geometry":{"type":"Point","coordinates":[-100.2775,25.65524]}},{"type":"Feature","properties":{"id":33,"Nombre":"Three Consultoría Medioambiental"},"geometry":{"type":"Point","coordinates":[-100.28578,25.64423]}}]}