{"type":"FeatureCollection","name":"areasverdes","crs":{"type":"name","properties":{"name":"urn:ogc:def:crs:EPSG::32614"}},"features":[{"type":"Feature","properties":{"FID_Munici":2,"CVE_ENT":"19","CVE_MUN":"039","NOM_MUN":"Monterrey","Area":5249.73800621,"NOM_ABREV":"Mty","FID_AreasV":1871,"Uso2019":"Parque","Nombre":"Parque Punta del Este\n","ParqueCat":2,"ParqueID":"PVMi1427","area_2":5249.737976074219,"perimeter":416.7450306882727,"área_m2":5251.81},"geometry":{"type":"Polygon","coordinates":[[[371854.4179999996,2837523.8208],[371847.61539999954,2837509.1433],[371802.2037000004,2837542.1909999996],[371775.02890000027,2837562.723099999],[371858.55730000045,2837582.346],[371893.2204,2837590.4166],[371931.54619999975,2837599.5364999995],[371950.9117,2837604.0263],[371951.52979999967,2837601.3600999992],[371942.69880000036,2837595.1363999993],[371940.83579999954,2837592.1651],[371920.7385,2837583.717],[371908.9517999999,2837577.9564999994],[371903.0711000003,2837574.6468],[371892.3005999997,2837566.3631999996],[371876.0784,2837553.0906],[371867.0855,2837541.1535],[371854.4179999996,2837523.8208]]]}},{"type":"Feature","properties":{"FID_Munici":2,"CVE_ENT":"19","CVE_MUN":"039","NOM_MUN":"Monterrey","Area":3595.4625031,"NOM_ABREV":"Mty","FID_AreasV":1873,"Uso2019":"Parque","Nombre":"Parque Ancón del Huajuco\n","ParqueCat":2,"ParqueID":"PVMi1429","area_2":3595.46240234375,"perimeter":290.8948249563818,"área_m2":3596.89},"geometry":{"type":"Polygon","coordinates":[[[372289.74760000035,2838529.4386],[372285.0053000003,2838523.484099999],[372283.75650000013,2838529.840399999],[372282.72950000037,2838535.0681999996],[372282.1386000002,2838538.0757999998],[372288.6864,2838541.3637],[372296.4144000001,2838545.2443],[372363.7440999998,2838586.7350999992],[372391.9983999999,2838577.7683],[372400.3487,2838565.5877],[372403.0703999996,2838554.996099999],[372382.4260999998,2838544.3659],[372380.54980000015,2838543.3997],[372369.89919999987,2838537.9155],[372366.6966000004,2838537.6909999996],[372366.13239999954,2838537.6514999997],[372317.46740000043,2838534.2402],[372291.0652,2838529.6668],[372289.74760000035,2838529.4386]]]}},{"type":"Feature","properties":{"FID_Munici":2,"CVE_ENT":"19","CVE_MUN":"039","NOM_MUN":"Monterrey","Area":11656.9994693,"NOM_ABREV":"Mty","FID_AreasV":1874,"Uso2019":"Parque","Nombre":"Parque Ancón del Huajuco\n","ParqueCat":3,"ParqueID":"PVMe0265","area_2":11656.999389648438,"perimeter":580.4149398808074,"área_m2":11661.65},"geometry":{"type":"Polygon","coordinates":[[[372633.73106634186,2838678.236165983],[372633.5569000002,2838670.2983999997],[372626.6151999999,2838658.7695],[372611.83829999994,2838647.4121],[372577.8141999999,2838640.7328999992],[372560.8518000003,2838641.0462999996],[372544.87260000035,2838637.3022],[372515.71740000043,2838622.5709],[372486.8099999996,2838613.9507],[372456.8651999999,2838599.8543],[372432.3153,2838584.9101],[372382.27979999967,2838595.5187999997],[372568.15869999956,2838715.3592],[372633.61811188795,2838678.3016642323],[372633.73106634186,2838678.236165983]]]}},{"type":"Feature","properties":{"FID_Munici":2,"CVE_ENT":"19","CVE_MUN":"039","NOM_MUN":"Monterrey","Area":1464.81700562,"NOM_ABREV":"Mty","FID_AreasV":1942,"Uso2019":"Parque","Nombre":"Parque LTH\n","ParqueCat":2,"ParqueID":"PVMi1476","area_2":1464.8167724609375,"perimeter":186.56065243552746,"área_m2":1465.39},"geometry":{"type":"Polygon","coordinates":[[[371636.7251000004,2837951.6192],[371641.8315000003,2837915.5272],[371653.37930000015,2837917.0119],[371658.4110000003,2837898.0986],[371618.06489999965,2837888.1556],[371617.2249999996,2837888.5693999995],[371616.4589999998,2837889.1076999996],[371615.78500000015,2837889.7576],[371615.2193,2837890.5035999995],[371614.77529999986,2837891.3279],[371614.46360000037,2837892.2107999995],[371628.3742000004,2837951.5587],[371628.70430000033,2837952.2534],[371629.1486999998,2837952.8812],[371629.69400000013,2837953.4234999996],[371630.32430000044,2837953.8642999995],[371631.0208999999,2837954.1905],[371631.76300000027,2837954.3925],[371632.52880000044,2837954.4641999993],[371633.29559999984,2837954.4036],[371634.04059999995,2837954.2124],[371634.7418,2837953.896299999],[371635.3783999998,2837953.4647],[371635.9315999998,2837952.930299999],[371636.3849999998,2837952.309],[371636.7251000004,2837951.6192]]]}},{"type":"Feature","properties":{"FID_Munici":2,"CVE_ENT":"19","CVE_MUN":"039","NOM_MUN":"Monterrey","Area":4060.95052813,"NOM_ABREV":"Mty","FID_AreasV":1943,"Uso2019":"Parque","Nombre":"Parque Estadio 1er Sector\n","ParqueCat":2,"ParqueID":"PVMi1477","area_2":4060.95068359375,"perimeter":254.62378663830265,"área_m2":4062.54},"geometry":{"type":"Polygon","coordinates":[[[371261.2915000003,2837905.8405],[371260.84420000017,2837905.84],[371260.40249999985,2837905.911],[371259.9779000003,2837906.0515],[371192.29839999974,2837924.285],[371191.8598999996,2837924.6449999996],[371191.4812000003,2837925.067399999],[371191.171,2837925.5424],[371190.93649999984,2837926.059],[371190.7832000004,2837926.6053],[371190.7145999996,2837927.1684],[371190.73230000027,2837927.7355],[371195.77830000035,2837972.9839999992],[371196.2315999996,2837973.4165],[371196.75040000025,2837973.7677999996],[371197.3203999996,2837974.027899999],[371197.92569999956,2837974.1898],[371198.5493999999,2837974.2489],[371198.73840000015,2837974.246099999],[371266.8526999997,2837965.9584999997],[371267.1560000004,2837965.5834],[371267.4014999997,2837965.1681999993],[371267.58380000014,2837964.7216],[371267.699,2837964.2531],[371267.74480000045,2837963.7729],[371267.72009999957,2837963.2912],[371263.2229000004,2837906.8501999993],[371262.91199999955,2837906.5286],[371262.5537,2837906.2608],[371262.1573,2837906.0536],[371261.733,2837905.9123],[371261.2915000003,2837905.8405]]]}},{"type":"Feature","properties":{"FID_Munici":2,"CVE_ENT":"19","CVE_MUN":"039","NOM_MUN":"Monterrey","Area":10274.7165763,"NOM_ABREV":"Mty","FID_AreasV":1945,"Uso2019":"Parque","Nombre":"Parque Estadio 2do Sector\n","ParqueCat":3,"ParqueID":"PVMe0271","area_2":10274.716552734377,"perimeter":637.6417928346099,"área_m2":10278.74},"geometry":{"type":"Polygon","coordinates":[[[371516.0351999998,2838065.8322],[371514.3940000003,2838052.5242],[371513.0349000003,2838052.639],[371476.83779999986,2838057.0341],[371474.9116000002,2838057.3104],[371472.966,2838057.2741],[371471.05140000023,2838056.9262],[371469.21740000043,2838056.275699999],[371467.5115,2838055.3395],[371465.9779000003,2838054.1416999996],[371464.6562,2838052.7134],[371463.58079999965,2838051.0917],[371462.77940000035,2838049.3183999993],[371454.33690000046,2837954.5397999994],[371453.3969999999,2837954.6119],[371453.2525000004,2837942.9771],[371461.6871999996,2837941.7422],[371458.8421,2837907.0034],[371450.1743,2837905.4962],[371438.6286000004,2837906.3192],[371435.43850000016,2837906.935799999],[371415.2740000002,2837912.6340999994],[371418.2929999996,2837947.135],[371427.4801000003,2837946.548699999],[371436.0800999999,2838051.0375999995],[371436.0465000002,2838052.9221],[371435.7125000004,2838054.7771],[371435.0867999997,2838056.555],[371434.1852000002,2838058.2103],[371433.03110000025,2838059.7004],[371431.65390000027,2838060.9871999994],[371430.0889999997,2838062.0376999993],[371428.3764000004,2838062.8249999993],[371426.5602000002,2838063.3288],[371416.5256000003,2838065.183],[371416.68929999974,2838066.581],[371418.30140000023,2838080.3528],[371418.92250000034,2838085.6581999995],[371420.1776999999,2838096.3808999993],[371422.74619999994,2838118.3211],[371432.0378999999,2838117.2447999995],[371521.51290000044,2838110.2487],[371520.78479999956,2838104.3445999995],[371518.9894000003,2838089.787],[371516.9325000001,2838073.1074],[371516.0351999998,2838065.8322]]]}},{"type":"Feature","properties":{"FID_Munici":2,"CVE_ENT":"19","CVE_MUN":"039","NOM_MUN":"Monterrey","Area":1634.9900404,"NOM_ABREV":"Mty","FID_AreasV":1946,"Uso2019":"Parque","Nombre":"Parque Fraccionamiento Florida 1er Sector\n","ParqueCat":2,"ParqueID":"PVMi1478","area_2":1634.990051269531,"perimeter":244.05885880634568,"área_m2":1635.62},"geometry":{"type":"Polygon","coordinates":[[[370066.1169999996,2838545.0073],[370062.8912000004,2838545.3223],[370059.65479999967,2838545.1466],[370056.48199999984,2838544.4842],[370053.4456000002,2838543.3505],[370050.6151999999,2838541.771299999],[370028.1436999999,2838517.933599999],[370027.9654000001,2838514.4428],[370028.3646,2838510.9704],[370029.3306,2838507.611199999],[370030.8367999997,2838504.457],[370030.07210000046,2838503.658399999],[370019.5932,2838492.7161999997],[370009.3662,2838482.0369],[369986.12310000043,2838503.8877],[370006.5926,2838525.2952999994],[370007.3340999996,2838524.6191],[370010.01499999966,2838523.9811],[370012.8256999999,2838523.7498],[370015.63910000026,2838523.9452],[370018.39080000017,2838524.5631],[370021.01769999973,2838525.5890999995],[370023.45969999954,2838526.9999],[370044.2263000002,2838549.4860999994],[370045.2161999997,2838551.0808],[370045.93850000016,2838552.8132],[370046.3746999996,2838554.6388],[370046.51350000035,2838556.5106],[370046.3514,2838558.3805],[370045.8925,2838560.2005],[370045.1486999998,2838561.9238],[370066.1169999996,2838545.0073]]]}},{"type":"Feature","properties":{"FID_Munici":2,"CVE_ENT":"19","CVE_MUN":"039","NOM_MUN":"Monterrey","Area":1128.61465395,"NOM_ABREV":"Mty","FID_AreasV":1947,"Uso2019":"Parque","Nombre":"Parque Fraccionamiento Florida 1er Sector\n","ParqueCat":2,"ParqueID":"PVMi1479","area_2":1128.6144409179688,"perimeter":140.27993670206135,"área_m2":1129.05},"geometry":{"type":"Polygon","coordinates":[[[370090.13609999977,2838583.6049],[370086.3853000002,2838579.6963],[370086.0473999996,2838576.7539],[370086.1601,2838573.7942999993],[370086.7207000004,2838570.8861],[370087.7161999997,2838568.0966999996],[370086.727,2838567.0393],[370074.39499999955,2838553.8564],[370071.6359000001,2838550.9069999997],[370066.1169999996,2838545.0073],[370045.1486999998,2838561.9238],[370043.2122999998,2838564.169399999],[370049.2778000003,2838570.5819],[370065.1173,2838587.3274],[370066.74930000026,2838586.1062],[370068.56400000025,2838585.178099999],[370070.5093,2838584.569599999],[370072.52940000035,2838584.2982],[370074.5663999999,2838584.3716],[370076.5617000004,2838584.7879],[370078.4581000004,2838585.535],[370080.20129999984,2838586.591499999],[370081.7410000004,2838587.926999999],[370083.0332000004,2838589.5033],[370090.13609999977,2838583.6049]]]}},{"type":"Feature","properties":{"FID_Munici":2,"CVE_ENT":"19","CVE_MUN":"039","NOM_MUN":"Monterrey","Area":6079.45337922,"NOM_ABREV":"Mty","FID_AreasV":1948,"Uso2019":"Parque","Nombre":"Parque Fraccionamiento Florida 1er Sector\n","ParqueCat":2,"ParqueID":"PVMi1480","area_2":6079.4532470703125,"perimeter":353.7424200408631,"área_m2":6081.78},"geometry":{"type":"Polygon","coordinates":[[[370090.13609999977,2838583.6049],[370083.0332000004,2838589.5033],[370084.0407999996,2838591.2752],[370084.7348999996,2838593.1916],[370085.0954999998,2838595.1977999993],[370085.11230000015,2838597.2359999996],[370084.78479999956,2838599.2478],[370084.1224999996,2838601.1754],[370083.1442,2838602.9636],[370081.8781000003,2838604.561],[370080.36060000025,2838605.9218],[370078.63520000037,2838607.0067999996],[370076.75129999965,2838607.7851],[370072.93489999976,2838607.187999999],[370069.0722000003,2838607.1489],[370065.2445,2838607.6687],[370061.53220000025,2838608.7365],[370058.0131999999,2838610.3298],[370008.3333,2838657.4728999995],[370007.8362999996,2838658.5438],[370007.51609999966,2838659.6801999994],[370007.38069999963,2838660.8531],[370007.4336000001,2838662.0325],[370007.67349999957,2838663.1885],[370008.09420000017,2838664.2916],[370008.68510000035,2838665.3137999997],[370009.4310999997,2838666.2289],[370010.3130999999,2838667.0135999992],[370011.30879999977,2838667.6481],[370029.0932,2838669.171599999],[370043.26159999985,2838669.6062],[370053.40469999984,2838669.0172],[370063.4879999999,2838667.77],[370073.46889999975,2838665.8696999997],[370083.30510000046,2838663.3245],[370092.955,2838660.145199999],[370102.3777,2838656.3451],[370111.5334,2838651.9403],[370120.3833999997,2838646.9496],[370128.8901000004,2838641.3939999994],[370147.13800000027,2838627.5605999995],[370144.18510000035,2838624.496099999],[370136.7653999999,2838616.5658],[370135.6464999998,2838615.37],[370125.1952999998,2838604.1997999996],[370122.5702999998,2838605.0922],[370119.84080000035,2838605.5792999994],[370117.0691999998,2838605.6501],[370114.3184000002,2838605.3028999995],[370111.6512000002,2838604.5458],[370109.1283999998,2838603.3958],[370090.13609999977,2838583.6049]]]}},{"type":"Feature","properties":{"FID_Munici":2,"CVE_ENT":"19","CVE_MUN":"039","NOM_MUN":"Monterrey","Area":8208.77275419,"NOM_ABREV":"Mty","FID_AreasV":1949,"Uso2019":"Parque","Nombre":"Parque de Residencial Florida\n","ParqueCat":3,"ParqueID":"PVMe0272","area_2":8208.772583007812,"perimeter":505.1007642394898,"área_m2":8211.92},"geometry":{"type":"Polygon","coordinates":[[[370139.67169999983,2838695.9751999993],[370124.7408999996,2838674.6931999996],[370122.9517999999,2838675.8114],[370107.58669999987,2838683.6793],[370103.6381999999,2838684.9334999993],[370101.29,2838728.765],[370099.35089999996,2838731.411699999],[370100.34059999976,2838734.4112],[370100.8875000002,2838737.5220999997],[370100.9801000003,2838740.6793],[370100.61649999954,2838743.8169],[370098.92619999964,2838770.0419999994],[370098.2274000002,2838782.0326],[370097.42619999964,2838795.783],[370097.0537,2838802.1746999994],[370095.9029000001,2838821.9234999996],[370094.1278,2838853.902899999],[370093.47169999965,2838865.4842],[370092.6074,2838880.7424],[370093.41889999993,2838880.2950999998],[370128.0493999999,2838853.6329999994],[370128.34190000035,2838852.6395999994],[370128.4907999998,2838851.6149],[370128.4930999996,2838850.5792999994],[370128.3487,2838849.5538999997],[370111.15780000016,2838824.4459],[370110.3202999998,2838821.8626],[370109.93790000025,2838819.1739],[370110.0219,2838816.4595],[370110.56989999954,2838813.7996999994],[370111.5656000003,2838811.2731],[370112.9796000002,2838808.9546],[370114.76999999955,2838806.9126999993],[370183.2229000004,2838759.9481],[370182.87689999957,2838759.4443999995],[370179.8200000003,2838754.9935999997],[370174.5593999997,2838747.3345999997],[370163.15479999967,2838730.7302],[370139.67169999983,2838695.9751999993]]]}},{"type":"Feature","properties":{"FID_Munici":2,"CVE_ENT":"19","CVE_MUN":"039","NOM_MUN":"Monterrey","Area":23508.6741516,"NOM_ABREV":"Mty","FID_AreasV":2034,"Uso2019":"Parque","Nombre":"Parque \"Tecnológico\"","ParqueCat":4,"ParqueID":"PV0039","area_2":23508.67395019531,"perimeter":725.5757385516164,"área_m2":23517.71},"geometry":{"type":"Polygon","coordinates":[[[370321.2023,2837282.2892],[370320.5268000001,2837282.2313],[370319.76779999956,2837282.2707],[370319.0225999998,2837282.4196],[370318.3066999996,2837282.6749],[370317.6354,2837283.0310999993],[370317.0226999996,2837283.480799999],[370232.7478,2837382.6548999995],[370140.3038999997,2837492.3912],[370140.0965999998,2837493.5545],[370140.08490000013,2837494.7359999996],[370140.26889999956,2837495.9032],[370140.6436,2837497.0238],[370141.1986999996,2837498.0669],[370218.09449999966,2837563.3406],[370219.0231999997,2837563.7498],[370220.00540000014,2837564.0054],[370221.01580000017,2837564.1007],[370222.0285,2837564.033399999],[370223.01740000024,2837563.8051999994],[370223.95710000023,2837563.4218],[370224.8235,2837562.8933],[370359.4511000002,2837321.9222],[370359.8914999999,2837320.5132],[370360.1010999996,2837319.051999999],[370360.0744000003,2837317.5759999994],[370359.8121999996,2837316.1231999993],[370359.3211000003,2837314.7311],[370322.50260000024,2837282.6631],[370321.8646,2837282.434],[370321.2023,2837282.2892]]]}},{"type":"Feature","properties":{"FID_Munici":2,"CVE_ENT":"19","CVE_MUN":"039","NOM_MUN":"Monterrey","Area":5528.28174481,"NOM_ABREV":"Mty","FID_AreasV":2035,"Uso2019":"Parque","Nombre":"Parque Altavista\n","ParqueCat":2,"ParqueID":"PVMi1533","area_2":5528.281555175781,"perimeter":322.33252564757925,"área_m2":5530.41},"geometry":{"type":"Polygon","coordinates":[[[370481.78220000025,2837129.2288],[370413.4606999997,2837070.4869999997],[370408.7209,2837070.6587],[370407.9298999999,2837071.0975],[370404.5229000002,2837072.6131999996],[370400.00370000023,2837073.8241],[370399.6261999998,2837073.8879],[370398.7320999997,2837074.0156999994],[370395.4221999999,2837074.2213],[370390.77749999985,2837073.8148999996],[370388.81039999984,2837073.3912],[370384.38999999966,2837074.7357],[370353.2503000004,2837127.5492],[370353.1749,2837128.0916],[370353.1880999999,2837128.6391],[370353.2896999996,2837129.1772],[370353.477,2837129.6918],[370353.7450000001,2837130.169399999],[370354.0866,2837130.5973],[370354.4929999998,2837130.9644],[370354.9534,2837131.2609],[370355.4556999998,2837131.4791],[370355.98670000024,2837131.6131999996],[370356.5678000003,2837131.6593999993],[370474.44930000044,2837142.6223],[370477.45490000024,2837141.0846999995],[370482.2980000004,2837132.2697],[370481.78220000025,2837129.2288]]]}},{"type":"Feature","properties":{"FID_Munici":2,"CVE_ENT":"19","CVE_MUN":"039","NOM_MUN":"Monterrey","Area":13803.4805666,"NOM_ABREV":"Mty","FID_AreasV":2037,"Uso2019":"Parque","Nombre":"Parque Roma\n","ParqueCat":3,"ParqueID":"PVMe0295","area_2":13803.480407714846,"perimeter":578.5414462402713,"área_m2":13808.75},"geometry":{"type":"Polygon","coordinates":[[[369908.95689999964,2837893.0287999995],[369908.3809000002,2837892.973],[369907.7165,2837893.0031],[369907.06429999974,2837893.1335],[369906.43929999974,2837893.3609999996],[369905.8559999997,2837893.6804],[369867.6719000004,2837962.2846],[369800.88769999985,2838082.924],[369800.44489999954,2838084.173699999],[369800.2084999997,2838085.4782],[369800.1847,2838086.8038],[369800.37409999967,2838088.116],[369800.7718000002,2838089.3807999995],[369835.33210000023,2838138.615],[369835.92349999957,2838138.8428],[369836.5443000002,2838138.9705999997],[369837.1776,2838138.994999999],[369837.8063000003,2838138.9153],[369838.4134999998,2838138.7336999997],[369838.98280000035,2838138.4551],[369857.3530000001,2838105.9064],[369858.24039999954,2838104.3342],[369873.9791000001,2838076.448],[369920.5477,2837992.3903],[369947.99260000046,2837943.1725999992],[369948.0864000004,2837941.6959],[369947.9682,2837940.221],[369947.6403999999,2837938.7781],[369947.1096999999,2837937.3969],[369910.5718,2837893.638],[369910.062,2837893.3641999997],[369909.52049999963,2837893.1599],[369908.95689999964,2837893.0287999995]]]}},{"type":"Feature","properties":{"FID_Munici":2,"CVE_ENT":"19","CVE_MUN":"039","NOM_MUN":"Monterrey","Area":1682.38503052,"NOM_ABREV":"Mty","FID_AreasV":2038,"Uso2019":"Parque","Nombre":"Parque calle América del Sur\n","ParqueCat":2,"ParqueID":"PVMi1535","area_2":1682.385009765625,"perimeter":174.06568773650727,"área_m2":1683.03},"geometry":{"type":"Polygon","coordinates":[[[370191.6518000001,2836995.9824],[370191.0508000003,2836995.9108],[370190.52880000044,2836995.9312999994],[370190.0153999999,2836996.0275999997],[370189.5214999998,2836996.1977999993],[370189.05759999994,2836996.4382],[370188.63379999995,2836996.7435999997],[370188.2054000003,2836997.1698],[370163.57239999995,2837033.7259],[370163.2105999999,2837034.6436],[370163.0049,2837035.6084],[370162.9609000003,2837036.5939],[370163.07990000024,2837037.5732],[370163.3585,2837038.5195],[370163.7890999997,2837039.4069999997],[370164.36010000017,2837040.2114],[370164.5020000003,2837040.3703],[370195.9151999997,2837065.883199999],[370196.3596,2837066.1843999997],[370196.8482999997,2837066.4068],[370197.3673999999,2837066.5440999996],[370197.9020999996,2837066.5923999995],[370198.44710000046,2837066.5372],[370198.9753,2837066.3921],[370199.472,2837066.1611],[370199.9232999999,2837065.8508],[370200.31680000015,2837065.4696999993],[370200.6451000003,2837064.999399999],[370200.7598000001,2837064.7852],[370201.2871000003,2837063.9031],[370203.3967000004,2837059.3483],[370204.8663999997,2837054.5485999994],[370205.6688000001,2837049.5934999995],[370205.7889999999,2837044.5753],[370205.22470000014,2837039.5875],[370203.9866000004,2837034.723],[370202.09750000015,2837030.0724],[370200.7022000002,2837027.6015],[370198.95239999983,2837023.3464],[370198.0219999999,2837020.7385],[370197.2854000004,2837018.375499999],[370195.7781999996,2837011.9537],[370194.82940000016,2837005.426],[370194.44600000046,2836998.8408],[370194.28729999997,2836998.2567],[370194.03220000025,2836997.7078],[370193.68819999974,2836997.2097999994],[370193.26520000026,2836996.777],[370192.7751000002,2836996.4218],[370192.2320999997,2836996.1544],[370191.6518000001,2836995.9824]]]}},{"type":"Feature","properties":{"FID_Munici":2,"CVE_ENT":"19","CVE_MUN":"039","NOM_MUN":"Monterrey","Area":1427.17277686,"NOM_ABREV":"Mty","FID_AreasV":2040,"Uso2019":"Parque","Nombre":"Parque Altavista\n","ParqueCat":2,"ParqueID":"PVMi1537","area_2":1427.1728515625,"perimeter":168.86083959596075,"área_m2":1427.73},"geometry":{"type":"Polygon","coordinates":[[[370728.1540999999,2837358.2339999992],[370724.6721,2837357.7831999995],[370715.72470000014,2837361.7169],[370715.4084999999,2837362.8581],[370722.86010000017,2837378.6690999996],[370742.2489,2837422.7215],[370761.2821000004,2837414.4191999994],[370761.88900000043,2837413.13],[370749.7636000002,2837377.4834],[370728.1540999999,2837358.2339999992]]]}},{"type":"Feature","properties":{"FID_Munici":2,"CVE_ENT":"19","CVE_MUN":"039","NOM_MUN":"Monterrey","Area":458.807534125,"NOM_ABREV":"Mty","FID_AreasV":2041,"Uso2019":"Jardin","Nombre":"Nulo","ParqueCat":2,"ParqueID":"PVMi1538","area_2":458.8074951171875,"perimeter":99.4742102133378,"área_m2":458.99},"geometry":{"type":"Polygon","coordinates":[[[371050.5939999996,2836900.6765],[371027.13350000046,2836897.8823],[371025.18759999983,2836898.9692],[371031.404,2836916.7314],[371066.7723000003,2836910.3835],[371050.5939999996,2836900.6765]]]}},{"type":"Feature","properties":{"FID_Munici":2,"CVE_ENT":"19","CVE_MUN":"039","NOM_MUN":"Monterrey","Area":10426.8840776,"NOM_ABREV":"Mty","FID_AreasV":2042,"Uso2019":"Parque","Nombre":"Parque Roma","ParqueCat":3,"ParqueID":"PVMe0296","area_2":10426.884094238281,"perimeter":463.0542923447303,"área_m2":10430.87},"geometry":{"type":"Polygon","coordinates":[[[370009.08860000037,2837738.014],[369996.8317999998,2837729.5599],[369917.6824000003,2837872.3921],[369918.43879999965,2837876.2181],[369957.1481999997,2837922.18],[369959.78809999954,2837922.5701],[370028.0963000003,2837799.9941],[370041.4894000003,2837774.8545999993],[370039.034,2837769.2018999998],[370020.4561999999,2837749.9987],[370009.08860000037,2837738.014]]]}},{"type":"Feature","properties":{"FID_Munici":2,"CVE_ENT":"19","CVE_MUN":"039","NOM_MUN":"Monterrey","Area":1883.23071885,"NOM_ABREV":"Mty","FID_AreasV":2055,"Uso2019":"Parque","Nombre":"Nulo","ParqueCat":3,"ParqueID":"PVMe0299","area_2":5.8994140625,"perimeter":22.82567894229685,"área_m2":5.9},"geometry":{"type":"MultiPolygon","coordinates":[[[[370765.63767753076,2836693.5085504428],[370761.63690069516,2836693.723666552],[370770.90981675475,2836695.8552309345],[370765.63767753076,2836693.5085504428]]],[[[370394.74268502236,2836748.566347035],[370394.23500000034,2836749.2053999994],[370394.5987999998,2836750.1154999994],[370395.02260688716,2836749.594917968],[370394.74268502236,2836748.566347035]]]]}},{"type":"Feature","properties":{"FID_Munici":2,"CVE_ENT":"19","CVE_MUN":"039","NOM_MUN":"Monterrey","Area":3514.1871575300006,"NOM_ABREV":"Mty","FID_AreasV":2059,"Uso2019":"Parque","Nombre":"Nulo","ParqueCat":2,"ParqueID":"PVMi1551","area_2":271.91943359375,"perimeter":389.1113908759056,"área_m2":272.02},"geometry":{"type":"MultiPolygon","coordinates":[[[[370131.3563547721,2836565.3840093687],[370136.5128383482,2836586.998986847],[370134.2644999996,2836566.130999999],[370134.0593458359,2836558.0215923144],[370131.3563547721,2836565.3840093687]]],[[[370137.2840792062,2836607.158848809],[370134.9621600704,2836625.2368230317],[370134.748568463,2836636.329846037],[370135.79980000015,2836633.9736],[370138.70600000024,2836617.137599999],[370137.5033999998,2836596.1929],[370136.633828165,2836588.121955686],[370137.2840792062,2836607.158848809]]],[[[370125.65746957995,2836645.922807701],[370116.749636678,2836652.9283499625],[370100.2536849566,2836662.272694979],[370083.1664568223,2836667.8669684157],[370063.82043761946,2836672.9583171047],[370048.09174072556,2836679.1817999277],[370041.3090019926,2836679.453203658],[370039.5585000003,2836679.9833],[370035.68340000045,2836681.022399999],[370032.75370000023,2836681.7334],[370031.81620000023,2836681.8621999994],[370030.86479999963,2836682.0494999997],[370031.0795999998,2836684.0139],[370056.66949999984,2836677.7617],[370098.1804999998,2836664.2216],[370114.25370000023,2836655.9206],[370129.6867000004,2836644.897],[370132.8936,2836640.4876],[370134.286971181,2836637.3644770654],[370125.65746957995,2836645.922807701]]]]}},{"type":"Feature","properties":{"FID_Munici":2,"CVE_ENT":"19","CVE_MUN":"039","NOM_MUN":"Monterrey","Area":5712.43094107,"NOM_ABREV":"Mty","FID_AreasV":2155,"Uso2019":"Parque","Nombre":"Parque la Primavera","ParqueCat":2,"ParqueID":"PVMi1623","area_2":5712.4310302734375,"perimeter":308.90253647019443,"área_m2":5714.67},"geometry":{"type":"Polygon","coordinates":[[[371441.2916000001,2837782.7513999995],[371465.6447,2837782.1448999997],[371480.2695000004,2837785.8168],[371489.40780000016,2837767.7661],[371491.06039999984,2837762.5797],[371491.9888000004,2837757.2161999997],[371492.1754,2837751.776],[371491.6168999998,2837746.3615],[371490.3236999996,2837741.073999999],[371488.3200000003,2837736.0129],[371485.64350000024,2837731.2731],[371482.3443999998,2837726.943499999],[371478.48450000025,2837723.1054],[371474.13630000036,2837719.8307],[371469.38150000013,2837717.181],[371464.3091000002,2837715.206],[371459.18319999985,2837714.6447],[371454.0279000001,2837714.7587],[371448.93180000037,2837715.5461],[371443.9824999999,2837716.9934],[371439.26499999966,2837719.0756],[371417.9996999996,2837732.5353999995],[371409.562,2837741.6685],[371397.91889999993,2837760.3764999993],[371393.66089999955,2837769.7904],[371389.0366000002,2837784.7671],[371386.98419999983,2837800.0737999994],[371406.4545,2837794.8171999995],[371422.3323999997,2837788.9352],[371441.2916000001,2837782.7513999995]]]}},{"type":"Feature","properties":{"FID_Munici":2,"CVE_ENT":"19","CVE_MUN":"039","NOM_MUN":"Monterrey","Area":5285.06286478,"NOM_ABREV":"Mty","FID_AreasV":2161,"Uso2019":"Parque","Nombre":"Parque Valle Primavera\n","ParqueCat":2,"ParqueID":"PVMi1628","area_2":5285.062927246094,"perimeter":342.43425594472666,"área_m2":5287.13},"geometry":{"type":"Polygon","coordinates":[[[371250.1908999998,2837406.4146999996],[371121.15500000026,2837393.0748999994],[371120.8454,2837393.2119999994],[371120.5641999999,2837393.4005999994],[371120.3197999997,2837393.635],[371120.1196999997,2837393.9081999995],[371119.9698,2837394.2117999997],[371113.5262000002,2837431.6413],[371113.47950000037,2837431.9584999997],[371113.48759999964,2837432.2791],[371113.5504,2837432.5934999995],[371113.6660000002,2837432.8926],[371113.83100000024,2837433.1676],[371114.04059999995,2837433.4102999996],[371114.2884999998,2837433.6137],[371114.5674999999,2837433.7717],[371114.8694000002,2837433.8796999995],[371244.2366000004,2837444.4559],[371244.39969999995,2837444.4957],[371244.6020999998,2837444.5138],[371244.8139000004,2837444.4962],[371245.0197,2837444.443],[371245.2133999998,2837444.3555999994],[371245.3894999996,2837444.2366],[371245.54279999994,2837444.0894],[371245.66899999976,2837443.9184],[371245.7642999999,2837443.7283999994],[371245.8258999996,2837443.525],[371245.8521999996,2837443.314099999],[371251.8033999996,2837408.9798],[371251.80539999995,2837408.758199999],[371251.7553000003,2837408.3323999997],[371251.63719999976,2837407.9202999994],[371251.45409999974,2837407.5326],[371251.2109000003,2837407.1796],[371250.9139,2837406.8704],[371250.5708999997,2837406.6131999996],[371250.1908999998,2837406.4146999996]]]}},{"type":"Feature","properties":{"FID_Munici":2,"CVE_ENT":"19","CVE_MUN":"039","NOM_MUN":"Monterrey","Area":2941.00684761,"NOM_ABREV":"Mty","FID_AreasV":3419,"Uso2019":"Parque","Nombre":"Nulo","ParqueCat":2,"ParqueID":"PVMi2521","area_2":1894.988037109375,"perimeter":334.94042160401574,"área_m2":1895.73},"geometry":{"type":"Polygon","coordinates":[[[371454.6737603359,2837126.083825648],[371435.99075810146,2837113.6086882744],[371418.95845318213,2837105.5988639873],[371400.7314337157,2837096.2590253],[371375.3712409064,2837085.8039531074],[371349.809821127,2837080.9293895066],[371325.9226207547,2837078.2372565847],[371307.8534572618,2837077.7324901894],[371297.84073717776,2837077.384640045],[371327.8887,2837091.0512],[371345.87179999985,2837096.371099999],[371370.017,2837103.5033],[371455.9868816402,2837126.9048938914],[371454.6737603359,2837126.083825648]]]}},{"type":"Feature","properties":{"FID_Munici":2,"CVE_ENT":"19","CVE_MUN":"039","NOM_MUN":"Monterrey","Area":913.5555921769999,"NOM_ABREV":"Mty","FID_AreasV":3423,"Uso2019":"Parque","Nombre":"Nulo","ParqueCat":3,"ParqueID":"PVMe0487","area_2":350.4010620117187,"perimeter":257.8976861665693,"área_m2":350.54},"geometry":{"type":"MultiPolygon","coordinates":[[[[370473.93294968165,2836821.067306235],[370467.8189000003,2836822.3268999998],[370462.3180999998,2836822.8960999995],[370457.07579999976,2836823.0862],[370451.9243,2836822.4735],[370444.9508999996,2836820.331599999],[370443.8843806045,2836819.881866452],[370437.42802504264,2836819.058063932],[370453.60809999984,2836824.6910999995],[370461.8339999998,2836824.976399999],[370486.7164328793,2836820.3693245896],[370473.93294968165,2836821.067306235]]],[[[370419.405973861,2836804.530092189],[370419.3690212225,2836804.4751108787],[370417.7516,2836803.0524],[370415.6787999999,2836800.7609],[370412.9369,2836796.5210999995],[370409.0664999997,2836788.8095999993],[370408.1745675696,2836786.106516959],[370399.5616766121,2836766.273697898],[370396.3708326793,2836754.5489642033],[370394.5987999998,2836750.1154999994],[370391.3026,2836754.1644],[370406.2736999998,2836792.3435999993],[370413.51400000043,2836805.8529],[370424.8251,2836814.6703999992],[370429.7648035919,2836816.390140394],[370419.405973861,2836804.530092189]]]]}},{"type":"Feature","properties":{"FID_Munici":2,"CVE_ENT":"19","CVE_MUN":"039","NOM_MUN":"Monterrey","Area":1799.35209276,"NOM_ABREV":"Mty","FID_AreasV":6754,"Uso2019":"Camellón","Nombre":"Nulo","ParqueCat":9,"ParqueID":"Ca-03249","area_2":1799.3521118164062,"perimeter":230.19472978538573,"área_m2":1800.06},"geometry":{"type":"Polygon","coordinates":[[[371536.1174999997,2837402.6148],[371517.75879999995,2837399.241],[371500.7561999997,2837494.2798999995],[371519.13740000036,2837497.436899999],[371536.1174999997,2837402.6148]]]}},{"type":"Feature","properties":{"FID_Munici":2,"CVE_ENT":"19","CVE_MUN":"039","NOM_MUN":"Monterrey","Area":735.10884328,"NOM_ABREV":"Mty","FID_AreasV":6842,"Uso2019":"Camellón","Nombre":"Nulo","ParqueCat":9,"ParqueID":"Ca-03337","area_2":735.108642578125,"perimeter":128.99001585548555,"área_m2":735.39},"geometry":{"type":"Polygon","coordinates":[[[370603.3364000004,2836935.9156],[370603.14609999955,2836935.8967],[370602.9554000003,2836935.91],[370602.7695000004,2836935.955],[370602.5937999999,2836936.0304],[370602.4332999997,2836936.1341999993],[370559.29289999977,2836961.4549],[370559.1668999996,2836961.5670999996],[370559.0621999996,2836961.6994],[370558.98199999984,2836961.8477],[370558.9286000002,2836962.0077],[370558.90359999985,2836962.1744999997],[370558.90780000016,2836962.3431],[370558.9411000004,2836962.5085],[370559.00239999965,2836962.6656],[370559.08999999985,2836962.8098],[370559.2011000002,2836962.9365999997],[370559.33249999955,2836963.0424],[370579.6129,2836978.2824],[370579.8905999996,2836978.4278999995],[370580.1891,2836978.5238],[370580.49959999975,2836978.5672999993],[370580.81290000025,2836978.5572999995],[370581.1200000001,2836978.493899999],[370581.4117,2836978.3791],[370581.6796000004,2836978.2161999997],[370581.9156999998,2836978.01],[370582.11319999956,2836977.7665],[370604.21920000017,2836937.364499999],[370604.2589999996,2836937.1775],[370604.26680000033,2836936.9865],[370604.2427000003,2836936.7968],[370604.18709999975,2836936.6138],[370604.1015999997,2836936.4428],[370603.9888000004,2836936.2884],[370603.85170000046,2836936.155099999],[370603.6941999998,2836936.046599999],[370603.5208,2836935.966],[370603.3364000004,2836935.9156]]]}},{"type":"Feature","properties":{"FID_Munici":2,"CVE_ENT":"19","CVE_MUN":"039","NOM_MUN":"Monterrey","Area":329.238041766,"NOM_ABREV":"Mty","FID_AreasV":6843,"Uso2019":"Camellón","Nombre":"Nulo","ParqueCat":9,"ParqueID":"Ca-03338","area_2":329.23797607421875,"perimeter":86.10584545870088,"área_m2":329.36},"geometry":{"type":"Polygon","coordinates":[[[370331.9285000004,2836905.5604],[370331.7340000002,2836905.5442999993],[370331.5832000002,2836905.6195],[370329.8742000004,2836924.6247],[370329.8822999997,2836924.7896999996],[370329.98419999983,2836924.9909],[370330.12519999966,2836925.1106],[370330.2818,2836925.1632],[370330.4469999997,2836925.1601],[370361.1266,2836922.2683],[370361.296,2836922.2150999997],[370361.4923,2836922.0846999995],[370361.63439999986,2836921.8966],[370361.6979,2836921.730799999],[370361.71300000045,2836921.5539999995],[370361.6668999996,2836921.322899999],[370361.5469000004,2836921.12],[370361.4177000001,2836920.998299999],[370331.9285000004,2836905.5604]]]}},{"type":"Feature","properties":{"FID_Munici":2,"CVE_ENT":"19","CVE_MUN":"039","NOM_MUN":"Monterrey","Area":1659.62556529,"NOM_ABREV":"Mty","FID_AreasV":6877,"Uso2019":"Camellón","Nombre":"Nulo","ParqueCat":9,"ParqueID":"Ca-03372","area_2":1659.6255493164062,"perimeter":215.4669290515498,"área_m2":1660.28},"geometry":{"type":"Polygon","coordinates":[[[371497.51350000035,2837616.7155],[371479.1401000004,2837613.3164],[371463.3251,2837701.2112],[371481.6514999997,2837704.1965999994],[371497.51350000035,2837616.7155]]]}},{"type":"Feature","properties":{"FID_Munici":2,"CVE_ENT":"19","CVE_MUN":"039","NOM_MUN":"Monterrey","Area":1812.29864682,"NOM_ABREV":"Mty","FID_AreasV":6878,"Uso2019":"Camellón","Nombre":"Nulo","ParqueCat":9,"ParqueID":"Ca-03373","area_2":1812.2986450195312,"perimeter":230.67620061140775,"área_m2":1813.01},"geometry":{"type":"Polygon","coordinates":[[[371516.92289999966,2837509.6701999996],[371498.3892999999,2837506.3354],[371481.2876000004,2837601.3807999995],[371499.6935,2837604.6926],[371516.92289999966,2837509.6701999996]]]}},{"type":"Feature","properties":{"FID_Munici":2,"CVE_ENT":"19","CVE_MUN":"039","NOM_MUN":"Monterrey","Area":234.361103154,"NOM_ABREV":"Mty","FID_AreasV":9418,"Uso2019":"Camellón","Nombre":"Nulo","ParqueCat":9,"ParqueID":"Ca-05908","area_2":234.36114501953125,"perimeter":85.04055624891737,"área_m2":234.45},"geometry":{"type":"Polygon","coordinates":[[[371417.1643000003,2838463.8559],[371415.5108000003,2838453.7988],[371392.9182000002,2838486.0656],[371402.2856999999,2838485.244999999],[371417.1643000003,2838463.8559]]]}},{"type":"Feature","properties":{"FID_Munici":2,"CVE_ENT":"19","CVE_MUN":"039","NOM_MUN":"Monterrey","Area":790.4157841530001,"NOM_ABREV":"Mty","FID_AreasV":9824,"Uso2019":"Camellón","Nombre":"Nulo","ParqueCat":9,"ParqueID":"Ca-06314","area_2":790.4157104492186,"perimeter":412.7689213830918,"área_m2":790.73},"geometry":{"type":"Polygon","coordinates":[[[371942.3957000002,2837711.0594999995],[371947.29,2837698.3613],[371857.2455000002,2837823.8950999994],[371830.8792000003,2837864.2111],[371838.7896999996,2837867.0341],[371839.2115000002,2837861.2314999998],[371859.49349999987,2837827.8664999995],[371942.3957000002,2837711.0594999995]]]}},{"type":"Feature","properties":{"FID_Munici":2,"CVE_ENT":"19","CVE_MUN":"039","NOM_MUN":"Monterrey","Area":152.311633037,"NOM_ABREV":"Mty","FID_AreasV":9833,"Uso2019":"Camellón","Nombre":"Nulo","ParqueCat":9,"ParqueID":"Ca-06323","area_2":152.31170654296875,"perimeter":59.85746901340931,"área_m2":152.37},"geometry":{"type":"Polygon","coordinates":[[[369783.11110000033,2838674.3158],[369782.3641999997,2838656.6114],[369765.9435999999,2838667.7631],[369764.14350000024,2838669.3357999995],[369766.4354999997,2838669.208],[369778.1162,2838671.6237],[369783.11110000033,2838674.3158]]]}},{"type":"Feature","properties":{"FID_Munici":2,"CVE_ENT":"19","CVE_MUN":"039","NOM_MUN":"Monterrey","Area":134.303465238,"NOM_ABREV":"Mty","FID_AreasV":9834,"Uso2019":"Camellón","Nombre":"Nulo","ParqueCat":9,"ParqueID":"Ca-06324","area_2":134.30328369140625,"perimeter":68.05535712774972,"área_m2":134.35},"geometry":{"type":"Polygon","coordinates":[[[369833.7659999998,2838630.1357],[369850.10080000013,2838615.0841],[369848.1758000003,2838613.6533],[369842.0120000001,2838618.4579],[369838.56549999956,2838620.2049],[369834.1468000002,2838620.248299999],[369831.2625000002,2838618.4315],[369829.437,2838627.1470999997],[369829.39109999966,2838634.6591999996],[369830.8306999998,2838635.3038999997],[369833.7659999998,2838630.1357]]]}},{"type":"Feature","properties":{"FID_Munici":2,"CVE_ENT":"19","CVE_MUN":"039","NOM_MUN":"Monterrey","Area":43.0754624444,"NOM_ABREV":"Mty","FID_AreasV":9835,"Uso2019":"Camellón","Nombre":"Nulo","ParqueCat":9,"ParqueID":"Ca-06325","area_2":43.075439453125,"perimeter":40.3504752201797,"área_m2":43.09},"geometry":{"type":"Polygon","coordinates":[[[369824.89300000016,2838638.7885],[369822.4863999998,2838636.9672],[369818.36789999995,2838655.4572],[369824.82650000043,2838644.1922999993],[369824.89300000016,2838638.7885]]]}},{"type":"Feature","properties":{"FID_Munici":2,"CVE_ENT":"19","CVE_MUN":"039","NOM_MUN":"Monterrey","Area":6.49395751953125,"NOM_ABREV":"Mty","FID_AreasV":9836,"Uso2019":"Camellón","Nombre":"Nulo","ParqueCat":9,"ParqueID":"Ca-06326","area_2":6.49395751953125,"perimeter":11.38996184057845,"área_m2":6.5},"geometry":{"type":"Polygon","coordinates":[[[369834.46669999976,2838639.1723999996],[369834.2726999996,2838637.6588],[369832.2572999997,2838639.1941],[369833.1261999998,2838642.546],[369834.0745000001,2838641.811899999],[369834.46669999976,2838639.1723999996]]]}},{"type":"Feature","properties":{"FID_Munici":2,"CVE_ENT":"19","CVE_MUN":"039","NOM_MUN":"Monterrey","Area":8.545942481100004,"NOM_ABREV":"Mty","FID_AreasV":9837,"Uso2019":"Camellón","Nombre":"Nulo","ParqueCat":9,"ParqueID":"Ca-06327","area_2":8.5458984375,"perimeter":13.514379728121035,"área_m2":8.55},"geometry":{"type":"Polygon","coordinates":[[[369834.4528,2838643.8508],[369833.9737999998,2838643.7238],[369832.4419,2838645.8472],[369832.2796,2838647.562],[369833.73149999976,2838649.4586999994],[369834.6830000002,2838649.0539999995],[369834.24430000037,2838646.9497999996],[369834.4528,2838643.8508]]]}},{"type":"Feature","properties":{"FID_Munici":2,"CVE_ENT":"19","CVE_MUN":"039","NOM_MUN":"Monterrey","Area":1.59560235141,"NOM_ABREV":"Mty","FID_AreasV":9838,"Uso2019":"Camellón","Nombre":"Nulo","ParqueCat":9,"ParqueID":"Ca-06328","area_2":1.59564208984375,"perimeter":5.80048408442813,"área_m2":1.6},"geometry":{"type":"Polygon","coordinates":[[[369831.9417000003,2838643.5459],[369831.39190000016,2838642.2994],[369830.6882999996,2838643.6241999995],[369830.9395000003,2838644.8737],[369831.9417000003,2838643.5459]]]}},{"type":"Feature","properties":{"FID_Munici":2,"CVE_ENT":"19","CVE_MUN":"039","NOM_MUN":"Monterrey","Area":80.1297693081,"NOM_ABREV":"Mty","FID_AreasV":9839,"Uso2019":"Camellón","Nombre":"Nulo","ParqueCat":9,"ParqueID":"Ca-06329","area_2":80.1297607421875,"perimeter":68.89540705208242,"área_m2":80.16},"geometry":{"type":"Polygon","coordinates":[[[369828.7536000004,2838653.3950999994],[369827.0493999999,2838650.1172],[369821.0982999997,2838664.4080999997],[369816.2503000004,2838681.5874],[369819.6956000002,2838679.7085999995],[369823.49060000014,2838664.78],[369828.7536000004,2838653.3950999994]]]}},{"type":"Feature","properties":{"FID_Munici":2,"CVE_ENT":"19","CVE_MUN":"039","NOM_MUN":"Monterrey","Area":333.36633835,"NOM_ABREV":"Mty","FID_AreasV":9842,"Uso2019":"Camellón","Nombre":"Nulo","ParqueCat":9,"ParqueID":"Ca-06332","area_2":333.36621093750006,"perimeter":683.7548900833687,"área_m2":333.49},"geometry":{"type":"Polygon","coordinates":[[[370090.53390000015,2838030.0418999996],[370089.81269999966,2838029.5746],[370018.8110999996,2838155.9899],[369974.44379999954,2838235.8102],[369923.7408999996,2838327.2368],[369924.7503000004,2838327.8594],[369975.165,2838236.2775],[370019.6771999998,2838156.614],[370090.53390000015,2838030.0418999996]]]}},{"type":"Feature","properties":{"FID_Munici":2,"CVE_ENT":"19","CVE_MUN":"039","NOM_MUN":"Monterrey","Area":333.369130023,"NOM_ABREV":"Mty","FID_AreasV":9843,"Uso2019":"Camellón","Nombre":"Nulo","ParqueCat":9,"ParqueID":"Ca-06333","area_2":333.369140625,"perimeter":683.7549045488647,"área_m2":333.5},"geometry":{"type":"Polygon","coordinates":[[[370110.70189999975,2838040.44],[370109.9807000002,2838039.9726],[370038.9790000003,2838166.3879],[369994.6116000004,2838246.2081],[369943.90859999973,2838337.6345],[369944.9179999996,2838338.2573],[369995.3328,2838246.6754],[370039.84509999957,2838167.0119],[370110.70189999975,2838040.44]]]}},{"type":"Feature","properties":{"FID_Munici":2,"CVE_ENT":"19","CVE_MUN":"039","NOM_MUN":"Monterrey","Area":287.462447517,"NOM_ABREV":"Mty","FID_AreasV":9844,"Uso2019":"Camellón","Nombre":"Nulo","ParqueCat":9,"ParqueID":"Ca-06334","area_2":287.4625244140625,"perimeter":581.0705667505408,"área_m2":287.57},"geometry":{"type":"Polygon","coordinates":[[[370565.29750000034,2837173.6119],[370564.2768000001,2837173.0617999993],[370495.5303999996,2837295.2941999994],[370423.8830000004,2837426.1344],[370424.64109999966,2837426.7003],[370496.4293,2837295.6149],[370565.29750000034,2837173.6119]]]}},{"type":"Feature","properties":{"FID_Munici":2,"CVE_ENT":"19","CVE_MUN":"039","NOM_MUN":"Monterrey","Area":287.461364678,"NOM_ABREV":"Mty","FID_AreasV":9845,"Uso2019":"Camellón","Nombre":"Nulo","ParqueCat":9,"ParqueID":"Ca-06335","area_2":287.4613037109375,"perimeter":581.0703366512541,"área_m2":287.57},"geometry":{"type":"Polygon","coordinates":[[[370587.6557,2837183.1459],[370586.6349999998,2837182.5957999993],[370517.88850000035,2837304.8281999994],[370446.2411000002,2837435.6684],[370446.99909999967,2837436.234099999],[370518.7874999996,2837305.1489],[370587.6557,2837183.1459]]]}},{"type":"Feature","properties":{"FID_Munici":2,"CVE_ENT":"19","CVE_MUN":"039","NOM_MUN":"Monterrey","Area":376.610153237,"NOM_ABREV":"Mty","FID_AreasV":9894,"Uso2019":"Camellón","Nombre":"Nulo","ParqueCat":9,"ParqueID":"Ca-06384","area_2":6.1171875,"perimeter":16.190511516119134,"área_m2":6.12},"geometry":{"type":"Polygon","coordinates":[[[370391.00553827547,2836734.8342274744],[370390.4969821829,2836732.361838801],[370390.11429999955,2836740.0351],[370391.8769899539,2836738.0363705666],[370391.00553827547,2836734.8342274744]]]}},{"type":"Feature","properties":{"FID_Munici":2,"CVE_ENT":"19","CVE_MUN":"039","NOM_MUN":"Monterrey","Area":398.029461117,"NOM_ABREV":"Mty","FID_AreasV":9895,"Uso2019":"Camellón","Nombre":"Nulo","ParqueCat":9,"ParqueID":"Ca-06385","area_2":345.45751953125,"perimeter":216.4276052935174,"área_m2":345.59},"geometry":{"type":"Polygon","coordinates":[[[370316.8563343417,2836578.6840480864],[370308.8817961234,2836568.855677057],[370281.6624999996,2836547.94],[370278.79596111464,2836546.149371018],[370267.6104624001,2836540.6060845708],[370291.6666000001,2836559.5447],[370313.71970000025,2836580.9197],[370341.6858,2836617.4097],[370330.0329999998,2836596.3194999993],[370325.2953377514,2836587.718873933],[370316.8563343417,2836578.6840480864]]]}},{"type":"Feature","properties":{"FID_Munici":2,"CVE_ENT":"19","CVE_MUN":"039","NOM_MUN":"Monterrey","Area":814.8979501750001,"NOM_ABREV":"Mty","FID_AreasV":10464,"Uso2019":"Camellón","Nombre":"Nulo","ParqueCat":9,"ParqueID":"Ca-06954","area_2":814.8980102539062,"perimeter":163.72162343021495,"área_m2":815.21},"geometry":{"type":"Polygon","coordinates":[[[369781.3839999996,2838605.7808],[369778.0767,2838605.7808],[369739.7120000003,2838669.942399999],[369746.9880999997,2838665.3122],[369756.24849999975,2838657.3747],[369782.0454000002,2838638.8538],[369781.3839999996,2838605.7808]]]}},{"type":"Feature","properties":{"FID_Munici":2,"CVE_ENT":"19","CVE_MUN":"039","NOM_MUN":"Monterrey","Area":643.7542621869999,"NOM_ABREV":"Mty","FID_AreasV":10465,"Uso2019":"Camellón","Nombre":"Nulo","ParqueCat":9,"ParqueID":"Ca-06955","area_2":643.7542114257812,"perimeter":178.7866545323627,"área_m2":644.0},"geometry":{"type":"Polygon","coordinates":[[[369804.72140000015,2838670.761499999],[369821.1958999997,2838604.0660999995],[369823.38659999985,2838595.1975],[369823.2917999998,2838595.3398],[369822.0636999998,2838597.1819],[369814.45689999964,2838616.0335],[369805.858,2838630.2547999993],[369796.26680000033,2838642.4918],[369797.2589999996,2838677.5492],[369799.43939999957,2838677.8057],[369804.72140000015,2838670.761499999]]]}},{"type":"Feature","properties":{"FID_Munici":2,"CVE_ENT":"19","CVE_MUN":"039","NOM_MUN":"Monterrey","Area":463.849738354,"NOM_ABREV":"Mty","FID_AreasV":10693,"Uso2019":"Camellón","Nombre":"Nulo","ParqueCat":9,"ParqueID":"Ca-07183","area_2":463.849853515625,"perimeter":208.87289421490573,"área_m2":464.03},"geometry":{"type":"Polygon","coordinates":[[[371138.98699999973,2837132.8907999992],[371135.8043999998,2837131.8899],[371110.4304999998,2837174.0307],[371107.12459999975,2837180.9225999992],[371104.8969,2837187.7751],[371094.15490000043,2837222.4738],[371099.8761999998,2837223.521299999],[371112.4600999998,2837180.1253999993],[371138.98699999973,2837132.8907999992]]]}},{"type":"Feature","properties":{"FID_Munici":2,"CVE_ENT":"19","CVE_MUN":"039","NOM_MUN":"Monterrey","Area":213.626439595,"NOM_ABREV":"Mty","FID_AreasV":10694,"Uso2019":"Camellón","Nombre":"Nulo","ParqueCat":9,"ParqueID":"Ca-07184","area_2":213.62640380859375,"perimeter":103.8589131381332,"área_m2":213.71},"geometry":{"type":"Polygon","coordinates":[[[371094.21439999994,2837233.7295999993],[371088.84339999966,2837233.5605999995],[371061.4826999996,2837270.9969999995],[371066.9406000003,2837271.5516999997],[371094.21439999994,2837233.7295999993]]]}},{"type":"Feature","properties":{"FID_Munici":2,"CVE_ENT":"19","CVE_MUN":"039","NOM_MUN":"Monterrey","Area":46.6170457801,"NOM_ABREV":"Mty","FID_AreasV":10695,"Uso2019":"Camellón","Nombre":"Nulo","ParqueCat":9,"ParqueID":"Ca-07185","area_2":46.61700439453125,"perimeter":35.60752785316619,"área_m2":46.64},"geometry":{"type":"Polygon","coordinates":[[[371040.1350999996,2837317.0912999995],[371026.38439999986,2837313.8407],[371024.29729999974,2837316.727499999],[371038.4952999996,2837320.0056999996],[371040.1350999996,2837317.0912999995]]]}},{"type":"Feature","properties":{"FID_Munici":2,"CVE_ENT":"19","CVE_MUN":"039","NOM_MUN":"Monterrey","Area":213.365952515,"NOM_ABREV":"Mty","FID_AreasV":10696,"Uso2019":"Camellón","Nombre":"Nulo","ParqueCat":9,"ParqueID":"Ca-07186","area_2":213.36590576171875,"perimeter":98.99968814995799,"área_m2":213.45},"geometry":{"type":"Polygon","coordinates":[[[371025.4441999998,2837320.8925],[371020.1612,2837319.799799999],[370994.1662999997,2837355.3928999994],[370999.1013000002,2837356.6727],[371025.4441999998,2837320.8925]]]}},{"type":"Feature","properties":{"FID_Munici":2,"CVE_ENT":"19","CVE_MUN":"039","NOM_MUN":"Monterrey","Area":214.58157952,"NOM_ABREV":"Mty","FID_AreasV":10697,"Uso2019":"Camellón","Nombre":"Nulo","ParqueCat":9,"ParqueID":"Ca-07187","area_2":214.58154296875003,"perimeter":102.78585563736547,"área_m2":214.67},"geometry":{"type":"Polygon","coordinates":[[[370993.3195000002,2837364.5259],[370988.6369000003,2837363.2149],[370960.9382999996,2837400.5784],[370965.84020000044,2837401.8497],[370993.3195000002,2837364.5259]]]}},{"type":"Feature","properties":{"FID_Munici":2,"CVE_ENT":"19","CVE_MUN":"039","NOM_MUN":"Monterrey","Area":49.1147991149,"NOM_ABREV":"Mty","FID_AreasV":10703,"Uso2019":"Camellón","Nombre":"Nulo","ParqueCat":9,"ParqueID":"Ca-07193","area_2":49.11474609375,"perimeter":62.89327953565561,"área_m2":49.13},"geometry":{"type":"Polygon","coordinates":[[[370715.34229999967,2836932.5239],[370713.7514000004,2836931.6566],[370698.27720000036,2836957.1027],[370699.57859999966,2836957.8257999998],[370715.34229999967,2836932.5239]]]}},{"type":"Feature","properties":{"FID_Munici":2,"CVE_ENT":"19","CVE_MUN":"039","NOM_MUN":"Monterrey","Area":513.737232244,"NOM_ABREV":"Mty","FID_AreasV":10725,"Uso2019":"Camellón","Nombre":"Nulo","ParqueCat":9,"ParqueID":"Ca-07215","area_2":513.7371826171875,"perimeter":164.4913081382656,"área_m2":513.94},"geometry":{"type":"Polygon","coordinates":[[[370853.95239999983,2838655.8409],[370800.0608,2838655.0484999996],[370798.869,2838656.8515],[370799.5705000004,2838659.476],[370853.14169999957,2838664.1415999997],[370876.8355999999,2838664.546599999],[370877.64639999997,2838661.104],[370870.3548999997,2838657.2565],[370853.95239999983,2838655.8409]]]}},{"type":"Feature","properties":{"FID_Munici":2,"CVE_ENT":"19","CVE_MUN":"039","NOM_MUN":"Monterrey","Area":1189.37675847,"NOM_ABREV":"Mty","FID_AreasV":10726,"Uso2019":"Camellón","Nombre":"Nulo","ParqueCat":9,"ParqueID":"Ca-07216","area_2":1189.3767700195312,"perimeter":403.03032292912366,"área_m2":1189.84},"geometry":{"type":"Polygon","coordinates":[[[370784.4082000004,2838654.265],[370591.3875000002,2838644.9218],[370587.84219999984,2838648.4666],[370590.0990000004,2838651.3216999993],[370784.46920000017,2838659.9472],[370786.0833,2838656.9356999993],[370784.4082000004,2838654.265]]]}},{"type":"Feature","properties":{"FID_Munici":2,"CVE_ENT":"19","CVE_MUN":"039","NOM_MUN":"Monterrey","Area":859.686422174,"NOM_ABREV":"Mty","FID_AreasV":10727,"Uso2019":"Camellón","Nombre":"Nulo","ParqueCat":9,"ParqueID":"Ca-07217","area_2":858.3919677734374,"perimeter":339.8057658874856,"área_m2":858.72},"geometry":{"type":"Polygon","coordinates":[[[370504.84782658983,2838649.748309737],[370508.0581356518,2838649.9325130326],[370509.8629,2838649.7698999997],[370579.73500000034,2838651.043],[370582.279,2838649.9724],[370582.54839999974,2838647.965399999],[370579.62320000026,2838645.399],[370508.59979999997,2838644.621099999],[370500.6984000001,2838645.3347999994],[370422.7368999999,2838666.4532999992],[370417.9462000001,2838671.0247],[370422.88939999975,2838671.7004],[370500.85089999996,2838650.5819],[370502.5907404827,2838650.425136743],[370504.84782658983,2838649.748309737]]]}},{"type":"Feature","properties":{"FID_Munici":2,"CVE_ENT":"19","CVE_MUN":"039","NOM_MUN":"Monterrey","Area":221.208412017,"NOM_ABREV":"Mty","FID_AreasV":10728,"Uso2019":"Camellón","Nombre":"Nulo","ParqueCat":9,"ParqueID":"Ca-07218","area_2":221.20843505859375,"perimeter":71.59885339486107,"área_m2":221.29},"geometry":{"type":"Polygon","coordinates":[[[370361.8690999998,2838666.333],[370354.7758999998,2838660.1876999997],[370350.7578999996,2838663.4979999997],[370357.41139999963,2838672.5625],[370361.8437,2838675.8607],[370369.2241000002,2838679.690199999],[370375.53699999955,2838680.5062],[370378.5893000001,2838678.9082999993],[370377.7888000002,2838676.0752],[370375.57770000026,2838672.8312],[370369.3587999996,2838670.697899999],[370361.8690999998,2838666.333]]]}},{"type":"Feature","properties":{"FID_Munici":2,"CVE_ENT":"19","CVE_MUN":"039","NOM_MUN":"Monterrey","Area":117.583054082,"NOM_ABREV":"Mty","FID_AreasV":10729,"Uso2019":"Camellón","Nombre":"Nulo","ParqueCat":9,"ParqueID":"Ca-07219","area_2":117.5830078125,"perimeter":52.56853329105746,"área_m2":117.63},"geometry":{"type":"Polygon","coordinates":[[[370368.1032999996,2838684.835],[370360.7483,2838681.0817],[370360.7483,2838697.1395999994],[370376.8103,2838686.1843],[370368.1032999996,2838684.835]]]}},{"type":"Feature","properties":{"FID_Munici":2,"CVE_ENT":"19","CVE_MUN":"039","NOM_MUN":"Monterrey","Area":670.81398701,"NOM_ABREV":"Mty","FID_AreasV":10730,"Uso2019":"Camellón","Nombre":"Nulo","ParqueCat":9,"ParqueID":"Ca-07220","area_2":670.81396484375,"perimeter":238.80330012610335,"área_m2":671.07},"geometry":{"type":"Polygon","coordinates":[[[370349.6639,2838655.0321999993],[370275.09449999966,2838570.240599999],[370270.3388,2838575.2747],[370287.5367999999,2838592.968699999],[370345.5393000003,2838659.4602],[370349.6639,2838655.0321999993]]]}},{"type":"Feature","properties":{"FID_Munici":2,"CVE_ENT":"19","CVE_MUN":"039","NOM_MUN":"Monterrey","Area":611.0369033489999,"NOM_ABREV":"Mty","FID_AreasV":10731,"Uso2019":"Camellón","Nombre":"Nulo","ParqueCat":9,"ParqueID":"Ca-07221","area_2":611.0369262695312,"perimeter":93.10953466437613,"área_m2":611.27},"geometry":{"type":"Polygon","coordinates":[[[370255.7340000002,2838545.4575999994],[370245.12849999964,2838544.6576],[370233.9232999999,2838555.4604],[370232.1213999996,2838561.6618],[370234.92200000025,2838566.2632999998],[370241.12569999974,2838568.4648],[370260.90419999976,2838569.298699999],[370265.13989999983,2838565.0623],[370265.3406999996,2838558.8608999997],[370255.7340000002,2838545.4575999994]]]}},{"type":"Feature","properties":{"FID_Munici":2,"CVE_ENT":"19","CVE_MUN":"039","NOM_MUN":"Monterrey","Area":485.6664233,"NOM_ABREV":"Mty","FID_AreasV":10732,"Uso2019":"Camellón","Nombre":"Nulo","ParqueCat":9,"ParqueID":"Ca-07222","area_2":485.66650390625,"perimeter":182.5773166313642,"área_m2":485.85},"geometry":{"type":"Polygon","coordinates":[[[369913.41619999986,2838672.8391999993],[369875.90720000025,2838671.172],[369874.7911,2838676.7720999997],[369913.6322999997,2838678.4985],[369960.70880000014,2838680.8531],[369960.90359999985,2838675.091],[369913.41619999986,2838672.8391999993]]]}},{"type":"Feature","properties":{"FID_Munici":2,"CVE_ENT":"19","CVE_MUN":"039","NOM_MUN":"Monterrey","Area":336.502123827,"NOM_ABREV":"Mty","FID_AreasV":10733,"Uso2019":"Camellón","Nombre":"Nulo","ParqueCat":9,"ParqueID":"Ca-07223","area_2":336.50213623046875,"perimeter":225.30135196572343,"área_m2":336.63},"geometry":{"type":"Polygon","coordinates":[[[369823.2917999998,2838595.3398],[369823.38659999985,2838595.1975],[369821.1958999997,2838604.0660999995],[369810.8778,2838645.8379999995],[369816.0823999997,2838639.311899999],[369818.19689999986,2838632.7335],[369821.3984000003,2838621.0123999994],[369824.79839999974,2838605.3124],[369827.0513000004,2838591.1161],[369830.35780000035,2838569.4864],[369833.7988999998,2838552.9091999996],[369838.2083,2838538.6577],[369836.4598000003,2838537.609099999],[369831.1531999996,2838552.7708],[369827.8468000004,2838569.7049],[369823.2917999998,2838595.3398]]]}},{"type":"Feature","properties":{"FID_Munici":2,"CVE_ENT":"19","CVE_MUN":"039","NOM_MUN":"Monterrey","Area":2016.96351987,"NOM_ABREV":"Mty","FID_AreasV":10734,"Uso2019":"Camellón","Nombre":"Nulo","ParqueCat":9,"ParqueID":"Ca-07224","area_2":2016.9635009765625,"perimeter":901.5311911308203,"área_m2":2017.73},"geometry":{"type":"Polygon","coordinates":[[[369993.7999999998,2838230.6000999995],[369989.7000000002,2838228.3001],[369936.9000000004,2838326.9001],[369833.1661,2838511.275699999],[369802.0,2838581.4001],[369796.5999999996,2838594.4001],[369794.86390000023,2838604.5253999997],[369794.77419999987,2838605.3355],[369794.32210000046,2838606.9318],[369794.18570000026,2838610.6483999994],[369793.4787999997,2838617.0305],[369793.7150999997,2838628.7717],[369800.0027,2838620.1141999997],[369803.0843000002,2838613.9549],[369808.1886999998,2838601.9691],[369812.6513,2838579.8586],[369817.1497999998,2838557.570699999],[369835.1712999996,2838511.9714],[369847.9000000004,2838490.4001],[369889.0999999996,2838421.0001],[369993.7999999998,2838230.6000999995]]]}},{"type":"Feature","properties":{"FID_Munici":2,"CVE_ENT":"19","CVE_MUN":"039","NOM_MUN":"Monterrey","Area":1250.9900615,"NOM_ABREV":"Mty","FID_AreasV":10735,"Uso2019":"Camellón","Nombre":"Nulo","ParqueCat":9,"ParqueID":"Ca-07225","area_2":1250.9899291992188,"perimeter":583.6325094702472,"área_m2":1251.47},"geometry":{"type":"Polygon","coordinates":[[[369807.40390000027,2838667.1841],[369796.8569,2838681.2498],[369797.28170000017,2838700.6555],[369798.31259999983,2838779.8149999995],[369797.98479999974,2838822.8258999996],[369798.3503999999,2838955.286699999],[369801.78170000017,2838955.455499999],[369801.7714999998,2838822.7497],[369803.6816999996,2838691.955499999],[369805.71360000037,2838677.186],[369807.40390000027,2838667.1841]]]}},{"type":"Feature","properties":{"FID_Munici":2,"CVE_ENT":"19","CVE_MUN":"039","NOM_MUN":"Monterrey","Area":135.671710773,"NOM_ABREV":"Mty","FID_AreasV":10736,"Uso2019":"Camellón","Nombre":"Nulo","ParqueCat":9,"ParqueID":"Ca-07226","area_2":135.671630859375,"perimeter":59.94430433084218,"área_m2":135.72},"geometry":{"type":"Polygon","coordinates":[[[369864.386,2838670.66],[369839.8984000003,2838669.5851],[369839.5718,2838675.2004],[369863.86170000024,2838676.135399999],[369864.386,2838670.66]]]}},{"type":"Feature","properties":{"FID_Munici":2,"CVE_ENT":"19","CVE_MUN":"039","NOM_MUN":"Monterrey","Area":414.544780904,"NOM_ABREV":"Mty","FID_AreasV":10737,"Uso2019":"Camellón","Nombre":"Rotonda de Altavista\n","ParqueCat":9,"ParqueID":"Ca-07227","area_2":414.54461669921875,"perimeter":72.23977246712914,"área_m2":414.7},"geometry":{"type":"Polygon","coordinates":[[[370395.5078999996,2837037.3619],[370394.24480000045,2837037.2431],[370392.3839999996,2837037.3542],[370390.65110000037,2837037.6743],[370388.7385999998,2837038.408399999],[370387.38889999967,2837039.1874],[370385.67360000033,2837040.5968999993],[370384.6002000002,2837041.832699999],[370383.76300000027,2837043.1184],[370383.0103000002,2837044.749399999],[370382.55960000027,2837046.2916],[370382.3479000004,2837047.6492999997],[370382.2966,2837048.8575],[370382.4360999996,2837050.53],[370382.7884999998,2837052.0701],[370383.26609999966,2837053.364],[370383.8897000002,2837054.5823],[370384.62909999955,2837055.685799999],[370385.4905000003,2837056.6964],[370386.5445999997,2837057.668299999],[370387.59169999976,2837058.425899999],[370388.5702999998,2837058.9876],[370389.74980000034,2837059.5085],[370391.2176,2837059.9517],[370392.8328,2837060.2047],[370394.44930000044,2837060.2272999994],[370396.12540000025,2837060.0084],[370397.6860999996,2837059.57],[370398.99650000036,2837059.005999999],[370400.30090000015,2837058.2339999992],[370401.4885999998,2837057.3007999994],[370402.50370000023,2837056.2665999997],[370403.5840999996,2837054.7962999996],[370404.44689999986,2837053.1049],[370405.0295000002,2837051.2519],[370405.35699999984,2837049.4605],[370405.2866000002,2837048.0551999994],[370405.1677000001,2837046.9549],[370404.75129999965,2837045.2075999994],[370404.21630000044,2837043.8505],[370403.24930000026,2837042.1738],[370402.21729999967,2837040.8946],[370401.26740000024,2837039.9858],[370399.77749999985,2837038.9082999993],[370398.43900000025,2837038.2106],[370396.98089999985,2837037.6826],[370395.5078999996,2837037.3619]]]}},{"type":"Feature","properties":{"FID_Munici":2,"CVE_ENT":"19","CVE_MUN":"039","NOM_MUN":"Monterrey","Area":148.896798189,"NOM_ABREV":"Mty","FID_AreasV":10738,"Uso2019":"Camellón","Nombre":"Nulo","ParqueCat":9,"ParqueID":"Ca-07228","area_2":148.896728515625,"perimeter":43.342524928638746,"área_m2":148.95},"geometry":{"type":"Polygon","coordinates":[[[370501.3898,2836897.5558],[370499.6755999997,2836897.1974],[370498.4798999997,2836897.2371999994],[370497.16449999996,2836897.4760999996],[370495.7692999998,2836898.0735],[370494.7729000002,2836898.7503999993],[370493.8562000003,2836899.7061],[370493.05900000036,2836900.9405],[370492.6205000002,2836902.2148],[370492.34140000027,2836903.489],[370492.34140000027,2836904.803099999],[370492.7400000002,2836906.2764999997],[370493.1386000002,2836907.1525999997],[370493.7366000004,2836908.1878999993],[370494.5338000003,2836909.1038],[370495.05200000014,2836909.581599999],[370495.8492,2836910.0993],[370497.08490000013,2836910.617],[370498.44010000024,2836910.9354999997],[370499.95469999965,2836910.8957],[370501.5093,2836910.5771999992],[370502.6253000004,2836910.1391],[370503.4623999996,2836909.5019],[370504.4190999996,2836908.6657],[370505.1763000004,2836907.71],[370505.7344000004,2836906.4756],[370506.09329999983,2836905.0819],[370506.1330000004,2836903.4493],[370505.93379999977,2836902.2148],[370505.41559999995,2836900.9405],[370504.4589999998,2836899.5866],[370503.6617999999,2836898.7503999993],[370502.5855999999,2836898.0336],[370501.3898,2836897.5558]]]}},{"type":"Feature","properties":{"FID_Munici":2,"CVE_ENT":"19","CVE_MUN":"039","NOM_MUN":"Monterrey","Area":935.240811155,"NOM_ABREV":"Mty","FID_AreasV":12012,"Uso2019":"Camellón","Nombre":"Nulo","ParqueCat":9,"ParqueID":"Ca-08502","area_2":935.2409057617188,"perimeter":574.7199833142909,"área_m2":935.61},"geometry":{"type":"Polygon","coordinates":[[[371959.21449999977,2837625.3279],[371956.04640000034,2837623.8213],[371895.28440000024,2837708.4891],[371854.54640000034,2837763.1163],[371824.24849999975,2837807.714299999],[371793.9584999997,2837856.6023999993],[371797.21360000037,2837858.1423],[371826.69180000015,2837809.7876999993],[371856.9801000003,2837764.4157],[371898.1628,2837710.6201],[371959.21449999977,2837625.3279]]]}},{"type":"Feature","properties":{"FID_Munici":2,"CVE_ENT":"19","CVE_MUN":"039","NOM_MUN":"Monterrey","Area":52.913046592,"NOM_ABREV":"Mty","FID_AreasV":12020,"Uso2019":"Camellón","Nombre":"Nulo","ParqueCat":9,"ParqueID":"Ca-08510","area_2":52.91296386718751,"perimeter":36.27898079863489,"área_m2":52.93},"geometry":{"type":"Polygon","coordinates":[[[369821.2856,2838954.5456],[369815.42819999997,2838948.2281],[369815.13829999976,2838959.5584999993],[369825.9375,2838956.8731999993],[369821.2856,2838954.5456]]]}},{"type":"Feature","properties":{"FID_Munici":2,"CVE_ENT":"19","CVE_MUN":"039","NOM_MUN":"Monterrey","Area":1288.90272993,"NOM_ABREV":"Mty","FID_AreasV":13475,"Uso2019":"Camellón","Nombre":"Nulo","ParqueCat":9,"ParqueID":"Ca-09967","area_2":1125.6534423828125,"perimeter":308.81273619048864,"área_m2":1126.1},"geometry":{"type":"Polygon","coordinates":[[[371954.42022713553,2837573.6888163686],[371929.857617666,2837563.8112349324],[371922.07917662535,2837557.543576426],[371909.6437999997,2837552.969799999],[371893.61369999964,2837538.9769],[371884.8912000004,2837529.5975],[371873.29860000033,2837507.763699999],[371867.91640000045,2837510.868],[371880.2758999998,2837533.0779],[371887.7249999996,2837542.9273],[371904.4249,2837558.8197],[371917.22470000014,2837566.6168],[371982.66889999993,2837592.0451999996],[371989.4894000003,2837582.3373],[371980.75579491135,2837579.125048511],[371954.42022713553,2837573.6888163686]]]}},{"type":"Feature","properties":{"FID_Munici":2,"CVE_ENT":"19","CVE_MUN":"039","NOM_MUN":"Monterrey","Area":3328.63444558,"NOM_ABREV":"Mty","FID_AreasV":13476,"Uso2019":"Camellón","Nombre":"Nulo","ParqueCat":9,"ParqueID":"Ca-09968","area_2":99.9732666015625,"perimeter":56.5127264649302,"área_m2":100.01},"geometry":{"type":"Polygon","coordinates":[[[372019.22787391633,2837611.1860479456],[372017.4062999999,2837608.8424999993],[372021.53960604046,2837602.570736719],[372019.7048886547,2837601.140554223],[372015.56680000015,2837607.1566],[372005.5252,2837619.724199999],[372009.3995250331,2837622.9128377573],[372019.22787391633,2837611.1860479456]]]}},{"type":"Feature","properties":{"FID_Munici":2,"CVE_ENT":"19","CVE_MUN":"039","NOM_MUN":"Monterrey","Area":616.3120857549999,"NOM_ABREV":"Mty","FID_AreasV":14366,"Uso2019":"Camellón","Nombre":"Nulo","ParqueCat":9,"ParqueID":"Ca-10860","area_2":616.3121337890625,"perimeter":146.53581024253185,"área_m2":616.55},"geometry":{"type":"Polygon","coordinates":[[[371580.199,2837251.2651],[371578.21470000036,2837249.2807],[371567.63129999954,2837256.5568],[371555.3942999998,2837270.116699999],[371543.81879999954,2837288.9683],[371539.8499999996,2837299.220899999],[371552.0870000003,2837308.1505999994],[371557.37870000023,2837288.3068],[371564.324,2837276.7313],[371571.2692999998,2837261.5176999997],[371580.199,2837251.2651]]]}},{"type":"Feature","properties":{"FID_Munici":2,"CVE_ENT":"19","CVE_MUN":"039","NOM_MUN":"Monterrey","Area":2302.87175651,"NOM_ABREV":"Mty","FID_AreasV":14368,"Uso2019":"Camellón","Nombre":"Nulo","ParqueCat":9,"ParqueID":"Ca-10862","area_2":2302.8715209960938,"perimeter":669.0782559357788,"área_m2":2303.78},"geometry":{"type":"Polygon","coordinates":[[[371625.1648000004,2838151.1552],[371621.5928999996,2838148.3771],[371467.2082000002,2838371.8181999996],[371436.25189999957,2838421.4276],[371439.03000000026,2838424.2058],[371468.79569999967,2838385.311899999],[371502.13329999987,2838335.3056],[371538.24899999984,2838281.7272999994],[371583.0959,2838216.242799999],[371625.1648000004,2838151.1552]]]}},{"type":"Feature","properties":{"FID_Munici":2,"CVE_ENT":"19","CVE_MUN":"039","NOM_MUN":"Monterrey","Area":207.912414334,"NOM_ABREV":"Mty","FID_AreasV":14369,"Uso2019":"Camellón","Nombre":"Nulo","ParqueCat":9,"ParqueID":"Ca-10863","area_2":207.91241455078125,"perimeter":169.45147620965238,"área_m2":207.99},"geometry":{"type":"Polygon","coordinates":[[[371673.18680000026,2838077.7332],[371672.39300000016,2838076.5426],[371624.3710000003,2838143.6146],[371627.546,2838145.5989999995],[371643.81790000014,2838121.3894999996],[371673.18680000026,2838077.7332]]]}},{"type":"Feature","properties":{"FID_Munici":2,"CVE_ENT":"19","CVE_MUN":"039","NOM_MUN":"Monterrey","Area":508.078761519,"NOM_ABREV":"Mty","FID_AreasV":14370,"Uso2019":"Camellón","Nombre":"Nulo","ParqueCat":9,"ParqueID":"Ca-10864","area_2":508.078857421875,"perimeter":186.4323593275932,"área_m2":508.27},"geometry":{"type":"Polygon","coordinates":[[[370280.78359999973,2837736.5556],[370282.9517,2837734.3873999994],[370284.7104000002,2837731.8757],[370286.00629999954,2837729.0967999995],[370286.7999,2837726.1350999996],[370287.06709999964,2837723.0806],[370286.7999,2837720.026],[370286.00629999954,2837717.0643],[370284.7104000002,2837714.2853999995],[370282.9517,2837711.7737],[370280.78359999973,2837709.6055999994],[370278.2719,2837707.8468999993],[370275.4929999998,2837706.5511],[370272.5312999999,2837705.7575],[370269.4768000003,2837705.4902],[370266.4221999999,2837705.7575],[370263.4605,2837706.5511],[370260.6815999998,2837707.8468999993],[370258.1699,2837709.6055999994],[370256.00179999974,2837711.7737],[370254.2430999996,2837714.2853999995],[370252.9472000003,2837717.0643],[370252.15359999985,2837720.026],[370251.8864000002,2837723.0806],[370252.15359999985,2837726.1350999996],[370252.9472000003,2837729.0967999995],[370254.2430999996,2837731.8757],[370256.00179999974,2837734.3873999994],[370258.1699,2837736.5556],[370260.6815999998,2837738.3143],[370263.4605,2837739.6100999992],[370266.4221999999,2837740.4036999997],[370269.4768000003,2837740.6709],[370272.5312999999,2837740.4036999997],[370275.4929999998,2837739.6100999992],[370278.2719,2837738.3143],[370280.78359999973,2837736.5556]],[[370271.31659999955,2837711.4102999996],[370273.3570999997,2837711.957],[370275.2717000004,2837712.8498],[370277.00210000016,2837714.0615],[370278.49590000045,2837715.5551999994],[370279.70749999955,2837717.2857],[370280.6003,2837719.2002],[370281.1469999999,2837721.2407],[370281.3311999999,2837723.3452],[370281.1469999999,2837725.4496],[370280.6003,2837727.4901],[370279.70749999955,2837729.4046],[370278.49590000045,2837731.1350999996],[370277.00210000016,2837732.628799999],[370275.2717000004,2837733.8405],[370273.3570999997,2837734.7333],[370271.31659999955,2837735.28],[370269.21219999995,2837735.4640999995],[370267.1076999996,2837735.28],[370265.0672000004,2837734.7333],[370263.15270000044,2837733.8405],[370261.4221999999,2837732.628799999],[370259.9285000004,2837731.1350999996],[370258.7167999996,2837729.4046],[370257.82409999985,2837727.4901],[370257.2773000002,2837725.4496],[370257.0932,2837723.3452],[370257.2773000002,2837721.2407],[370257.82409999985,2837719.2002],[370258.7167999996,2837717.2857],[370259.9285000004,2837715.5551999994],[370261.4221999999,2837714.0615],[370263.15270000044,2837712.8498],[370265.0672000004,2837711.957],[370267.1076999996,2837711.4102999996],[370269.21219999995,2837711.2261999995],[370271.31659999955,2837711.4102999996]]]}},{"type":"Feature","properties":{"FID_Munici":2,"CVE_ENT":"19","CVE_MUN":"039","NOM_MUN":"Monterrey","Area":178.44245684,"NOM_ABREV":"Mty","FID_AreasV":14372,"Uso2019":"Camellón","Nombre":"Nulo","ParqueCat":9,"ParqueID":"Ca-10866","area_2":178.4425048828125,"perimeter":76.2310969792019,"área_m2":178.51},"geometry":{"type":"Polygon","coordinates":[[[370282.4413999999,2837685.5097],[370279.7955,2837681.0117],[370273.7100999998,2837690.8013],[370279.2664,2837692.1242999993],[370284.2934999997,2837694.2409],[370290.11429999955,2837697.1514],[370293.2893000003,2837700.5909],[370295.1414,2837703.2368],[370301.4913999997,2837692.6534],[370294.0831000004,2837692.6534],[370289.5850999998,2837691.330499999],[370285.6163999997,2837689.4783999994],[370282.4413999999,2837685.5097]]]}},{"type":"Feature","properties":{"FID_Munici":2,"CVE_ENT":"19","CVE_MUN":"039","NOM_MUN":"Monterrey","Area":186.561747637,"NOM_ABREV":"Mty","FID_AreasV":14373,"Uso2019":"Camellón","Nombre":"Nulo","ParqueCat":9,"ParqueID":"Ca-10867","area_2":186.5616455078125,"perimeter":75.86078998423974,"área_m2":186.63},"geometry":{"type":"Polygon","coordinates":[[[370266.30179999955,2837751.9201999996],[370259.42260000017,2837751.1264999993],[370253.3371000001,2837748.216],[370249.1037999997,2837744.2473],[370245.9287999999,2837739.4847999997],[370240.9017000003,2837751.6556],[370244.8705000002,2837751.391],[370249.6330000004,2837752.4494],[370253.3371000001,2837754.3015],[370256.24760000035,2837756.6827],[370258.6288,2837759.5931],[370260.21630000044,2837763.2972999997],[370263.65589999966,2837758.0056],[370266.30179999955,2837751.9201999996]]]}},{"type":"Feature","properties":{"FID_Munici":2,"CVE_ENT":"19","CVE_MUN":"039","NOM_MUN":"Monterrey","Area":5891.1330414,"NOM_ABREV":"Mty","FID_AreasV":14516,"Uso2019":"Camellón","Nombre":"Nulo","ParqueCat":9,"ParqueID":"Ca-11010","area_2":439.1368408203125,"perimeter":463.0425059131823,"área_m2":439.31},"geometry":{"type":"Polygon","coordinates":[[[370829.42716203304,2836720.9694944075],[370778.7905000001,2836812.0253],[370718.68989999965,2836921.8209],[370720.3547,2836922.7321],[370780.4522000002,2836812.9420999996],[370831.3538803845,2836721.546327101],[370829.42716203304,2836720.9694944075]]]}},{"type":"Feature","properties":{"FID_Munici":2,"CVE_ENT":"19","CVE_MUN":"039","NOM_MUN":"Monterrey","Area":1029.86694007,"NOM_ABREV":"Mty","FID_AreasV":14517,"Uso2019":"Camellón","Nombre":"Nulo","ParqueCat":9,"ParqueID":"Ca-11011","area_2":1029.8670654296875,"perimeter":424.23819751342864,"área_m2":1030.27},"geometry":{"type":"Polygon","coordinates":[[[371346.17119999975,2838569.9538],[371397.7114000004,2838491.8950999994],[371393.5787000004,2838492.3705],[371354.8300999999,2838551.5416],[371349.9020999996,2838557.4155],[371342.9135999996,2838563.2795],[371328.4194,2838589.584899999],[371299.34449999966,2838668.4016999993],[371297.86429999955,2838673.9257999994],[371304.2048000004,2838674.4805999994],[371334.0318999998,2838591.7337999996],[371346.17119999975,2838569.9538]]]}},{"type":"Feature","properties":{"FID_Munici":2,"CVE_ENT":"19","CVE_MUN":"039","NOM_MUN":"Monterrey","Area":680.140773326,"NOM_ABREV":"Mty","FID_AreasV":14519,"Uso2019":"Camellón","Nombre":"Nulo","ParqueCat":9,"ParqueID":"Ca-11013","area_2":680.1406860351562,"perimeter":343.57957233201444,"área_m2":680.41},"geometry":{"type":"Polygon","coordinates":[[[371803.0318,2837888.1574],[371800.4919999996,2837887.134299999],[371764.3789999997,2837942.9295],[371738.8121999996,2837978.1404999997],[371706.5920000002,2838025.4261],[371707.8717,2838028.1816],[371711.0390999997,2838028.0363999996],[371743.26379999984,2837981.0845999997],[371794.4121000003,2837901.9633],[371803.0318,2837888.1574]]]}},{"type":"Feature","properties":{"FID_Munici":2,"CVE_ENT":"19","CVE_MUN":"039","NOM_MUN":"Monterrey","Area":355.662542087,"NOM_ABREV":"Mty","FID_AreasV":15519,"Uso2019":"Área Natural Protegida","Nombre":"Nuevo Parque Ecológico La Pastora","ParqueCat":8,"ParqueID":"ANP-0006","area_2":355.6619873046875,"perimeter":76.71900036771835,"área_m2":355.8},"geometry":{"type":"Polygon","coordinates":[[[372630.12916163914,2838622.786392592],[372630.11868131155,2838622.786242676],[372616.2548000002,2838622.7114],[372615.34520000033,2838634.1703999992],[372614.5575000001,2838644.1393999998],[372632.8828999996,2838645.5875],[372630.86462703807,2838628.8751795976],[372630.12916163914,2838622.786392592]]]}},{"type":"Feature","properties":{"FID_Munici":14,"CVE_ENT":"19","CVE_MUN":"026","NOM_MUN":"Guadalupe","Area":293.160610963,"NOM_ABREV":"Guadalupe","FID_AreasV":1874,"Uso2019":"Parque","Nombre":"Nulo","ParqueCat":3,"ParqueID":"PVMe0265","area_2":29.131591796875,"perimeter":166.79412760039236,"área_m2":29.14},"geometry":{"type":"MultiPolygon","coordinates":[[[[372633.61811188795,2838678.3016642323],[372568.15869999956,2838715.3592],[372568.89367467735,2838715.833051176],[372633.61811188795,2838678.3016642323]]],[[[372633.7316175429,2838678.235846361],[372633.55748297885,2838670.2993682097],[372633.5569000002,2838670.2983999997],[372633.73106634186,2838678.236165983],[372633.7316175429,2838678.235846361]]]]}},{"type":"Feature","properties":{"FID_Munici":14,"CVE_ENT":"19","CVE_MUN":"026","NOM_MUN":"Guadalupe","Area":1437545.5832499997,"NOM_ABREV":"Guadalupe","FID_AreasV":15519,"Uso2019":"Área Natural Protegida","Nombre":"Nuevo Parque Ecológico La Pastora","ParqueCat":8,"ParqueID":"ANP-0006","area_2":0.8587646484375,"perimeter":61.51130766140743,"área_m2":0.86},"geometry":{"type":"MultiPolygon","coordinates":[[[[372630.86462703807,2838628.8751795976],[372632.8828999996,2838645.5875],[372632.8833144161,2838645.5875327466],[372630.86462703807,2838628.8751795976]]],[[[372616.2645898877,2838622.5880666985],[372616.2548000002,2838622.7114],[372630.11868131155,2838622.786242676],[372616.2645898877,2838622.5880666985]]]]}},{"type":"Feature","properties":{"FID_Munici":2,"CVE_ENT":"19","CVE_MUN":"039","NOM_MUN":"Monterrey","Area":11151.9698671,"NOM_ABREV":"Mty","FID_AreasV":2055,"Uso2019":"Parque","Nombre":"Nulo","ParqueCat":3,"ParqueID":"PVMe0299","area_2":42.90490722656249,"perimeter":114.7793371160049,"área_m2":42.92},"geometry":{"type":"MultiPolygon","coordinates":[[[[370459.39570850506,2836821.8610435408],[370443.8843806045,2836819.881866452],[370444.9508999996,2836820.331599999],[370451.9243,2836822.4735],[370457.07579999976,2836823.0862],[370462.3180999998,2836822.8960999995],[370467.8189000003,2836822.3268999998],[370473.93294968165,2836821.067306235],[370459.39570850506,2836821.8610435408]]],[[[370410.276328871,2836790.9462219793],[370408.1745675696,2836786.106516959],[370409.0664999997,2836788.8095999993],[370412.9369,2836796.5210999995],[370415.6787999999,2836800.7609],[370417.7516,2836803.0524],[370419.3690212225,2836804.4751108787],[370410.276328871,2836790.9462219793]]],[[[370395.02260688716,2836749.594917968],[370394.5987999998,2836750.1154999994],[370396.3708326793,2836754.5489642033],[370395.02260688716,2836749.594917968]]]]}},{"type":"Feature","properties":{"FID_Munici":2,"CVE_ENT":"19","CVE_MUN":"039","NOM_MUN":"Monterrey","Area":11151.9698671,"NOM_ABREV":"Mty","FID_AreasV":3423,"Uso2019":"Parque","Nombre":"Nulo","ParqueCat":3,"ParqueID":"PVMe0487","area_2":42.90490722656249,"perimeter":114.7793371160049,"área_m2":42.92},"geometry":{"type":"MultiPolygon","coordinates":[[[[370459.39570850506,2836821.8610435408],[370443.8843806045,2836819.881866452],[370444.9508999996,2836820.331599999],[370451.9243,2836822.4735],[370457.07579999976,2836823.0862],[370462.3180999998,2836822.8960999995],[370467.8189000003,2836822.3268999998],[370473.93294968165,2836821.067306235],[370459.39570850506,2836821.8610435408]]],[[[370410.276328871,2836790.9462219793],[370408.1745675696,2836786.106516959],[370409.0664999997,2836788.8095999993],[370412.9369,2836796.5210999995],[370415.6787999999,2836800.7609],[370417.7516,2836803.0524],[370419.3690212225,2836804.4751108787],[370410.276328871,2836790.9462219793]]],[[[370395.02260688716,2836749.594917968],[370394.5987999998,2836750.1154999994],[370396.3708326793,2836754.5489642033],[370395.02260688716,2836749.594917968]]]]}},{"type":"Feature","properties":{"FID_Munici":2,"CVE_ENT":"19","CVE_MUN":"039","NOM_MUN":"Monterrey","Area":459.065827821,"NOM_ABREV":"Mty","FID_AreasV":14370,"Uso2019":"Camellón","Nombre":"Nulo","ParqueCat":9,"ParqueID":"Ca-10864","area_2":459.0657958984375,"perimeter":76.04919480408732,"área_m2":459.24},"geometry":{"type":"Polygon","coordinates":[[[370271.31659999955,2837711.4102999996],[370269.21219999995,2837711.2261999995],[370267.1076999996,2837711.4102999996],[370265.0672000004,2837711.957],[370263.15270000044,2837712.8498],[370261.4221999999,2837714.0615],[370259.9285000004,2837715.5551999994],[370258.7167999996,2837717.2857],[370257.82409999985,2837719.2002],[370257.2773000002,2837721.2407],[370257.0932,2837723.3452],[370257.2773000002,2837725.4496],[370257.82409999985,2837727.4901],[370258.7167999996,2837729.4046],[370259.9285000004,2837731.1350999996],[370261.4221999999,2837732.628799999],[370263.15270000044,2837733.8405],[370265.0672000004,2837734.7333],[370267.1076999996,2837735.28],[370269.21219999995,2837735.4640999995],[370271.31659999955,2837735.28],[370273.3570999997,2837734.7333],[370275.2717000004,2837733.8405],[370277.00210000016,2837732.628799999],[370278.49590000045,2837731.1350999996],[370279.70749999955,2837729.4046],[370280.6003,2837727.4901],[370281.1469999999,2837725.4496],[370281.3311999999,2837723.3452],[370281.1469999999,2837721.2407],[370280.6003,2837719.2002],[370279.70749999955,2837717.2857],[370278.49590000045,2837715.5551999994],[370277.00210000016,2837714.0615],[370275.2717000004,2837712.8498],[370273.3570999997,2837711.957],[370271.31659999955,2837711.4102999996]]]}},{"type":"Feature","properties":{"FID_Munici":2,"CVE_ENT":"19","CVE_MUN":"039","NOM_MUN":"Monterrey","Area":459.065827821,"NOM_ABREV":"Mty","FID_AreasV":14371,"Uso2019":"Camellón","Nombre":"Nulo","ParqueCat":9,"ParqueID":"Ca-10865","area_2":459.0657958984375,"perimeter":76.04919480408732,"área_m2":459.24},"geometry":{"type":"Polygon","coordinates":[[[370271.31659999955,2837711.4102999996],[370269.21219999995,2837711.2261999995],[370267.1076999996,2837711.4102999996],[370265.0672000004,2837711.957],[370263.15270000044,2837712.8498],[370261.4221999999,2837714.0615],[370259.9285000004,2837715.5551999994],[370258.7167999996,2837717.2857],[370257.82409999985,2837719.2002],[370257.2773000002,2837721.2407],[370257.0932,2837723.3452],[370257.2773000002,2837725.4496],[370257.82409999985,2837727.4901],[370258.7167999996,2837729.4046],[370259.9285000004,2837731.1350999996],[370261.4221999999,2837732.628799999],[370263.15270000044,2837733.8405],[370265.0672000004,2837734.7333],[370267.1076999996,2837735.28],[370269.21219999995,2837735.4640999995],[370271.31659999955,2837735.28],[370273.3570999997,2837734.7333],[370275.2717000004,2837733.8405],[370277.00210000016,2837732.628799999],[370278.49590000045,2837731.1350999996],[370279.70749999955,2837729.4046],[370280.6003,2837727.4901],[370281.1469999999,2837725.4496],[370281.3311999999,2837723.3452],[370281.1469999999,2837721.2407],[370280.6003,2837719.2002],[370279.70749999955,2837717.2857],[370278.49590000045,2837715.5551999994],[370277.00210000016,2837714.0615],[370275.2717000004,2837712.8498],[370273.3570999997,2837711.957],[370271.31659999955,2837711.4102999996]]]}},{"type":"Feature","properties":{"FID_Munici":2,"CVE_ENT":"19","CVE_MUN":"036","NOM_MUN":"Monterrey","Area":32469.205749511715,"NOM_ABREV":"Mty","FID_AreasV":null,"Uso2019":"Parque","Nombre":"Parque Central","ParqueCat":null,"ParqueID":null,"area_2":32469.205749511715,"perimeter":823.6884582487628,"área_m2":32481.82},"geometry":{"type":"Polygon","coordinates":[[[370900.1519196425,2837945.082068467],[370931.1880231834,2837950.2547523906],[371013.9509659592,2837919.2186488495],[371008.77828203567,2837903.700597079],[370967.3968106478,2837831.2830221504],[370967.3968106478,2837805.419602533],[370957.05144280085,2837738.174711528],[370936.3607071069,2837696.7932401397],[370858.7704482546,2837707.1386079867],[370858.7704482546,2837748.520079375],[370786.3528733258,2837738.174711528],[370760.4894537084,2837769.210815069],[370874.28850002505,2837872.6644935384],[370900.1519196425,2837945.082068467]]]}},{"type":"Feature","properties":{"FID_Munici":2,"CVE_ENT":"19","CVE_MUN":"036","NOM_MUN":"Monterrey","Area":8267.807678222656,"NOM_ABREV":"Mty","FID_AreasV":null,"Uso2019":"Parque","Nombre":"Parque Residencial Florida\n","ParqueCat":null,"ParqueID":null,"area_2":8267.807678222656,"perimeter":374.9839665913775,"área_m2":8271.0},"geometry":{"type":"Polygon","coordinates":[[[370450.1284182993,2838374.414834116],[370403.574262988,2838415.796305504],[370470.8191539933,2838508.904616127],[370532.8913610751,2838457.177776892],[370450.1284182993,2838374.414834116]]]}},{"type":"Feature","properties":{"FID_Munici":2,"CVE_ENT":"19","CVE_MUN":"036","NOM_MUN":"Monterrey","Area":6368.0848388671875,"NOM_ABREV":"Mty","FID_AreasV":null,"Uso2019":"Parque","Nombre":"Parque México\n","ParqueCat":null,"ParqueID":null,"area_2":6368.0848388671875,"perimeter":322.73502867929017,"área_m2":6370.52},"geometry":{"type":"Polygon","coordinates":[[[369932.8600259509,2836812.264289224],[370020.7956526501,2836832.955024918],[370036.3137044206,2836750.192082142],[369953.55076164484,2836750.192082142],[369932.8600259509,2836812.264289224]]]}},{"type":"Feature","properties":{"FID_Munici":2,"CVE_ENT":"19","CVE_MUN":"036","NOM_MUN":"Monterrey","Area":1423.5066528320312,"NOM_ABREV":"Mty","FID_AreasV":null,"Uso2019":"Parque","Nombre":"Parque Narvarte","ParqueCat":null,"ParqueID":null,"area_2":1423.5066528320312,"perimeter":166.66265318791528,"área_m2":1424.06},"geometry":{"type":"Polygon","coordinates":[[[371311.60989538854,2837480.658230061],[371252.80851904786,2837469.857977264],[371248.0084066935,2837492.658510947],[371305.6097549456,2837504.658791833],[371311.60989538854,2837480.658230061]]]}},{"type":"Feature","properties":{"FID_Munici":2,"CVE_ENT":"19","CVE_MUN":"036","NOM_MUN":"Monterrey","Area":329.055419921875,"NOM_ABREV":"Mty","FID_AreasV":null,"Uso2019":"Parque","Nombre":"Parque de bolsillo Luis Elizondo\n","ParqueCat":null,"ParqueID":null,"area_2":329.055419921875,"perimeter":88.27904410607192,"área_m2":329.18},"geometry":{"type":"Polygon","coordinates":[[[371057.20394060854,2837762.664830879],[371051.2038001656,2837735.0641848412],[371028.40326648246,2837739.864297196],[371057.20394060854,2837762.664830879]]]}},{"type":"Feature","properties":{"FID_Munici":2,"CVE_ENT":"19","CVE_MUN":"036","NOM_MUN":"Monterrey","Area":1.59564208984375,"NOM_ABREV":"Mty","FID_AreasV":null,"Uso2019":"Parque","Nombre":"Parque Bolsillo CDT","ParqueCat":null,"ParqueID":null,"area_2":1236.8236694335938,"perimeter":171.8021023747305,"área_m2":1237.3},"geometry":{"type":"Polygon","coordinates":[[[370829.9172599029,2837572.752739101],[370868.7967556557,2837606.516511729],[370859.58845403005,2837534.896387974],[370829.9172599029,2837572.752739101]]]}},{"type":"Feature","properties":{"FID_Munici":2,"CVE_ENT":"19","CVE_MUN":"036","NOM_MUN":"Monterrey","Area":650.2711181640625,"NOM_ABREV":"Mty","FID_AreasV":null,"Uso2019":"Parque","Nombre":"Parque de bolsillo Junco de la Vega\n","ParqueCat":null,"ParqueID":null,"area_2":650.2711181640625,"perimeter":116.08362516356317,"área_m2":650.52},"geometry":{"type":"Polygon","coordinates":[[[370513.59304708027,2837911.500962513],[370542.1875944005,2837937.6572151007],[370547.2858470235,2837933.22395195],[370547.06418386596,2837930.3423309023],[370557.2606891119,2837919.4808361838],[370551.49744701636,2837914.6042467183],[370535.7593628324,2837912.830941458],[370521.57292075106,2837902.6344362125],[370513.59304708027,2837911.500962513]]]}},{"type":"Feature","properties":{"FID_Munici":2,"CVE_ENT":"19","CVE_MUN":"036","NOM_MUN":"Monterrey","Area":1147.1616821289062,"NOM_ABREV":"Mty","FID_AreasV":null,"Uso2019":"Parque","Nombre":"Parque Villa Florida","ParqueCat":null,"ParqueID":null,"area_2":1147.1616821289062,"perimeter":174.9375748178223,"área_m2":1147.61},"geometry":{"type":"Polygon","coordinates":[[[370875.76887743163,2838509.1663041594],[370878.7421990949,2838580.526024078],[370894.203471744,2838579.9313597456],[370892.419478746,2838508.5716398265],[370875.76887743163,2838509.1663041594]]]}},{"type":"Feature","properties":{"FID_Munici":null,"CVE_ENT":null,"CVE_MUN":null,"NOM_MUN":null,"Area":null,"NOM_ABREV":null,"FID_AreasV":null,"Uso2019":null,"Nombre":null,"ParqueCat":null,"ParqueID":null,"area_2":null,"perimeter":null,"área_m2":1366.29},"geometry":{"type":"Polygon","coordinates":[[[371519.45279811404,2837385.280952802],[371537.93229030154,2837388.443550458],[371540.5987942078,2837371.7623981144],[371546.6759426453,2837344.539253583],[371549.9005520203,2837330.0905231144],[371551.7609035828,2837318.6803668644],[371538.2423488953,2837309.5026324894],[371531.9171535828,2837326.1217731144],[371524.3517238953,2837358.739937177],[371520.5069973328,2837377.591499677],[371519.45279811404,2837385.280952802]]]}}]}