{"type":"FeatureCollection","name":"campana_altamira","crs":{"type":"name","properties":{"name":"urn:ogc:def:crs:OGC:1.3:CRS84"}},"features":[{"type":"Feature","properties":{"id":null,"Name":"Plan Parcial","description":"0 <br> <br> FID 0 <br> Id 0 <br> NOMBRE <br> AREA_HA 168.760368","timestamp":null,"begin":null,"end":null,"altitudeMode":null,"tessellate":-1,"extrude":0,"visibility":-1,"drawOrder":null,"icon":null},"geometry":{"type":"Polygon","coordinates":[[[-100.307294,25.63905,0.0],[-100.306649,25.638913,0.0],[-100.308182,25.635614,0.0],[-100.30758,25.635167,0.0],[-100.306023,25.634557,0.0],[-100.299206,25.630312,0.0],[-100.299114,25.631879,0.0],[-100.299692,25.633725,0.0],[-100.297114,25.63721,0.0],[-100.295724,25.637877,0.0],[-100.295379,25.638332,0.0],[-100.296561,25.639059,0.0],[-100.296779,25.639566,0.0],[-100.296622,25.639763,0.0],[-100.297586,25.64162,0.0],[-100.29672,25.641848,0.0],[-100.297087,25.643569,0.0],[-100.301178,25.643189,0.0],[-100.302137,25.642698,0.0],[-100.302847,25.642524,0.0],[-100.302987,25.643789,0.0],[-100.305081,25.647287,0.0],[-100.305801,25.64738,0.0],[-100.306369,25.646583,0.0],[-100.30798,25.647511,0.0],[-100.307863,25.646842,0.0],[-100.308018,25.646502,0.0],[-100.307817,25.646211,0.0],[-100.307986,25.645437,0.0],[-100.309086,25.645737,0.0],[-100.309364,25.645122,0.0],[-100.312039,25.646823,0.0],[-100.3129971,25.6470298,0.0],[-100.3127933,25.6464398,0.0],[-100.3139573,25.6446069,0.0],[-100.3135711,25.6445102,0.0],[-100.3138876,25.6437752,0.0],[-100.3118888,25.6426412,0.0],[-100.3094201,25.6408774,0.0],[-100.306343,25.639821,0.0],[-100.307294,25.63905,0.0]]]}}]}