{"type":"FeatureCollection","features":[{"type":"Feature","geometry":{"type":"Polygon","coordinates":[[[-100.296737,25.641981],[-100.296445,25.641962],[-100.294397,25.642203],[-100.293731,25.641756],[-100.2937,25.641003],[-100.293313,25.640723],[-100.292833,25.640751],[-100.292074,25.641128],[-100.291362,25.641896],[-100.291114,25.642859],[-100.290495,25.643445],[-100.289736,25.643431],[-100.289272,25.643013],[-100.288374,25.64258],[-100.287398,25.642301],[-100.286686,25.642496],[-100.285788,25.641268],[-100.281398,25.643732],[-100.282373,25.644241],[-100.283194,25.645435],[-100.282404,25.645721],[-100.281146,25.645892],[-100.280378,25.64631],[-100.279253,25.646801],[-100.278994,25.646972],[-100.278375,25.648144],[-100.276776,25.648839],[-100.276544,25.649425],[-100.276157,25.649997],[-100.275224,25.650367],[-100.274976,25.650536],[-100.275226,25.650887],[-100.272481,25.652984],[-100.27245,25.653166],[-100.273441,25.654185],[-100.273921,25.655727],[-100.273627,25.656299],[-100.272257,25.657695],[-100.270708,25.65916],[-100.269709,25.659733],[-100.268982,25.659865],[-100.269005,25.660291],[-100.269748,25.660675],[-100.272456,25.659096],[-100.273172,25.658946],[-100.273379,25.658979],[-100.275125,25.660054],[-100.278903,25.660263],[-100.282441,25.660207],[-100.290172,25.659874],[-100.291447,25.660193],[-100.293452,25.661408],[-100.293514,25.661903],[-100.297292,25.662599],[-100.297273,25.660097],[-100.297374,25.659972],[-100.297672,25.660069],[-100.29819,25.660711],[-100.299992,25.652679],[-100.297407,25.64972],[-100.297252,25.644314],[-100.296737,25.641981]]]},"properties":{"id":null,"AREA":4498572.463,"fill-opacity":0,"stroke":"#0000FF","stroke-width":2}}]}