{"type":"FeatureCollection","name":"parquesdebolsillo","crs":{"type":"name","properties":{"name":"urn:ogc:def:crs:EPSG::32614"}},"features":[{"type":"Feature","properties":{"FID_Munici":2,"CVE_ENT":"19","CVE_MUN":"039","NOM_MUN":"Monterrey","Area":329.1835514008999,"NOM_ABREV":"Mty","FID_AreasV":null,"Uso2019":"Parque","Nombre":"Parque de bolsillo Dover","ParqueCat":null,"ParqueID":null,"area_2":329.055419921875,"perimeter":88.27904410607192},"geometry":{"type":"Polygon","coordinates":[[[371057.20394060854,2837762.664830879],[371051.2038001656,2837735.0641848412],[371028.40326648246,2837739.864297196],[371057.20394060854,2837762.664830879]]]}},{"type":"Feature","properties":{"FID_Munici":2,"CVE_ENT":"19","CVE_MUN":"039","NOM_MUN":"Monterrey","Area":1237.3037315905094,"NOM_ABREV":"Mty","FID_AreasV":null,"Uso2019":"Parque","Nombre":"Parque Bolsillo CDT","ParqueCat":null,"ParqueID":null,"area_2":1236.8236694335938,"perimeter":171.8021023747305},"geometry":{"type":"Polygon","coordinates":[[[370829.9172599029,2837572.752739101],[370868.7967556557,2837606.516511729],[370859.58845403005,2837534.896387974],[370829.9172599029,2837572.752739101]]]}},{"type":"Feature","properties":{"FID_Munici":2,"CVE_ENT":"19","CVE_MUN":"039","NOM_MUN":"Monterrey","Area":690.1055151360342,"NOM_ABREV":"Mty","FID_AreasV":null,"Uso2019":"Parque","Nombre":"Parque de bolsillo CIAP\n","ParqueCat":null,"ParqueID":null,"area_2":650.2711181640625,"perimeter":116.08362516356317},"geometry":{"type":"Polygon","coordinates":[[[370512.8548505046,2837914.0856227437],[370542.1875944005,2837937.6572151007],[370547.2858470235,2837933.22395195],[370547.06418386596,2837930.3423309023],[370557.2606891119,2837919.4808361838],[370551.49744701636,2837914.6042467183],[370535.7593628324,2837912.830941458],[370521.57292075106,2837902.6344362125],[370512.8548505046,2837914.0856227437]]]}},{"type":"Feature","properties":{"FID_Munici":2,"CVE_ENT":"19","CVE_MUN":"039","NOM_MUN":"Monterrey","Area":2093.0476578857088,"NOM_ABREV":"Mty","FID_AreasV":null,"Uso2019":"Parque","Nombre":"Sin nombre","ParqueCat":null,"ParqueID":null,"area_2":null,"perimeter":null},"geometry":{"type":"Polygon","coordinates":[[[370493.73600585747,2837389.4776792447],[370494.78324795095,2837389.07943224],[370495.7788654304,2837388.4820617526],[370496.833482464,2837387.5233189943],[370501.4501975904,2837382.316608325],[370504.1641770897,2837379.3518807194],[370505.2999185106,2837378.7766350647],[370506.65690826025,2837378.245639076],[370507.60090112954,2837378.1276399675],[370508.6923928847,2837378.1276399675],[370513.97285299754,2837377.980141081],[370513.9802279418,2837378.334138407],[370516.819581494,2837378.4042003774],[370516.83801885473,2837378.04651558],[370521.7939814186,2837378.0170158027],[370540.2313421476,2837377.736767921],[370540.2313421476,2837378.1202650242],[370543.37306841573,2837378.1387023865],[370543.4173180816,2837377.7699551713],[370544.30968634086,2837377.806829893],[370546.67704345845,2837377.814204837],[370547.7390354364,2837377.8953292244],[370549.7745200608,2837378.2862012726],[370550.7111379858,2837378.610698821],[370552.05706531915,2837379.1343198665],[370553.8418018376,2837379.9492512112],[370555.64128824475,2837380.5392467547],[370556.65903055697,2837380.598246309],[370558.87151384447,2837380.4654973117],[370561.4379944579,2837380.347498203],[370562.80973409605,2837380.3474982027],[370566.77745412494,2837379.6395035507],[370566.20220847015,2837379.1970068933],[370565.7080872027,2837378.828259679],[370563.4366043609,2837376.9255240518],[370563.03098242474,2837376.5715267253],[370561.7772418952,2837375.5095347473],[370559.874506268,2837374.0197960003],[370550.9950733409,2837366.748100929],[370547.5140996353,2837363.9751218758],[370537.3219266245,2837355.6561847143],[370535.1979426686,2837353.87882314],[370524.71077188593,2837345.471386648],[370514.48541162576,2837337.119262237],[370513.50823150703,2837336.687827996],[370512.6232381919,2837336.4518297785],[370511.73824487673,2837336.2453313386],[370510.83850167296,2837336.1273322296],[370510.08625735505,2837336.1420821184],[370509.3930125915,2837336.2748311157],[370508.7882671595,2837336.510829333],[370508.06552261877,2837336.9238262135],[370507.3132783009,2837337.469572091],[370506.29553598847,2837338.3103157403],[370504.73204779834,2837339.7115551564],[370502.7555627277,2837341.791289447],[370501.3174485906,2837343.5907758535],[370479.782611255,2837382.3829828347],[370493.73600585747,2837389.4776792447]]]}},{"type":"Feature","properties":{"FID_Munici":2,"CVE_ENT":"19","CVE_MUN":"039","NOM_MUN":"Monterrey","Area":1145.085472532679,"NOM_ABREV":"Mty","FID_AreasV":null,"Uso2019":"Parque","Nombre":"Sin nombre","ParqueCat":null,"ParqueID":null,"area_2":null,"perimeter":null},"geometry":{"type":"Polygon","coordinates":[[[370585.0599410235,2837400.377846894],[370585.4434381266,2837443.8015188817],[370586.9036770963,2837443.786768993],[370636.18305485236,2837443.241023115],[370636.9205492815,2837443.314772558],[370637.8055425965,2837443.506521109],[370638.248039254,2837443.624520218],[370639.1477824575,2837444.0375170982],[370585.0599410235,2837400.377846894]]]}},{"type":"Feature","properties":{"FID_Munici":2,"CVE_ENT":"19","CVE_MUN":"039","NOM_MUN":"Monterrey","Area":610.0517855380166,"NOM_ABREV":"Mty","FID_AreasV":null,"Uso2019":"Parque","Nombre":"Parque de bolsillo A6","ParqueCat":null,"ParqueID":null,"area_2":null,"perimeter":null},"geometry":{"type":"Polygon","coordinates":[[[370732.7689683367,2837726.0683993194],[370732.7948250716,2837741.218272268],[370733.1045727318,2837741.2625219333],[370733.1045727318,2837744.286249093],[370735.49405468226,2837741.9705165853],[370735.63417862385,2837741.9778915294],[370735.5899289581,2837742.4609503807],[370735.84067706397,2837742.674823765],[370736.7219829068,2837741.830392644],[370736.9985433178,2837742.136452832],[370737.3156659223,2837741.8267051713],[370737.5996012775,2837742.1327653597],[370737.86878674413,2837741.8525174763],[370738.1822218765,2837742.177015025],[370738.6929367687,2837741.6202067314],[370738.3795016363,2837741.2901779744],[370738.69662424084,2837740.9970239387],[370738.9916220125,2837741.3012403906],[370739.2497450627,2837741.035742396],[370738.67081193585,2837740.4309969647],[370739.2552762708,2837739.8760324065],[370739.53808298317,2837740.1862249076],[370739.8747715912,2837739.876032407],[370740.1402695857,2837740.189467539],[370740.70814029616,2837739.5920970514],[370740.40208010806,2837739.308161696],[370740.7007653519,2837739.031601285],[370740.9847007071,2837739.341348945],[370741.26126111805,2837739.0684760064],[370740.6850382412,2837738.499662239],[370740.970474355,2837738.219436929],[370740.4100237329,2837737.648564701],[370740.69545984693,2837737.368339389],[370740.13500922435,2837736.797467162],[370740.42044533795,2837736.517241851],[370740.70067064936,2837736.802677965],[370740.9861067633,2837736.522452654],[370740.7058814523,2837736.2370165377],[370741.27675367944,2837735.676565917],[370741.5569789909,2837735.962002031],[370741.8424151045,2837735.681776721],[370742.12264041597,2837735.967212834],[370742.4080765295,2837735.686987524],[370742.9685271513,2837736.2578597497],[370743.25396326545,2837735.977634438],[370743.8144138879,2837736.5485066646],[370744.0998500015,2837736.268281356],[370743.81962469046,2837735.9828452407],[370744.1050608039,2837735.70261993],[370744.38528611546,2837735.9880560427],[370744.956158343,2837735.4276054227],[370744.67593303154,2837735.142169308],[370744.96136914555,2837734.861943996],[370744.68114383443,2837734.5765078827],[370744.9665799484,2837734.296282572],[370744.40612932405,2837733.7254103427],[370744.69156543794,2837733.4451850294],[370744.1311148154,2837732.8743128027],[370744.416550929,2837732.594087492],[370744.6967762404,2837732.8795236046],[370744.9822123544,2837732.5992982946],[370744.70198704343,2837732.313862181],[370745.27285927045,2837731.75341156],[370745.553084582,2837732.0388476728],[370745.8385206956,2837731.7586223623],[370746.118746007,2837732.0440584756],[370746.40159728937,2837731.717500281],[370746.9646327365,2837732.3347053826],[370747.25006884866,2837732.054480074],[370747.53029415983,2837732.339916188],[370747.81573027367,2837732.0596908773],[370748.09595558484,2837732.3451269907],[370748.6668278123,2837731.784676369],[370748.3866025012,2837731.4992402545],[370748.6720386151,2837731.2190149426],[370748.9522639262,2837731.504451057],[370749.23770004,2837731.224225747],[370748.67724941776,2837730.653353519],[370748.9626855316,2837730.373128208],[370748.4022349214,2837729.8022559923],[370748.65833024256,2837729.560329075],[370748.1272204077,2837728.951158458],[370748.37439488654,2837728.701148058],[370748.66201771464,2837728.9961458365],[370748.97831794684,2837728.676143949],[370748.6980926356,2837728.390707836],[370749.2689648628,2837727.8302572127],[370749.5491901743,2837728.115693327],[370749.8346262879,2837727.835468016],[370750.1148515993,2837728.120904131],[370750.40028771764,2837727.840678815],[370750.9607383348,2837728.411551045],[370751.2461744487,2837728.131325735],[370751.8066250719,2837728.702197962],[370752.0920611853,2837728.421972652],[370751.8118358738,2837728.136536537],[370752.0972719873,2837727.856311227],[370752.3774972988,2837728.1417473396],[370752.9483695263,2837727.5812967177],[370752.66814421484,2837727.295860605],[370752.9535803288,2837727.015635294],[370752.6733550178,2837726.730199179],[370753.2442272457,2837726.1697485573],[370753.80467786815,2837726.7406207845],[370754.0901139817,2837726.4603954726],[370753.8098886707,2837726.174959361],[370754.09532478417,2837725.894734049],[370754.3755500957,2837726.1801701626],[370754.94642232335,2837725.6197195407],[370754.6661970117,2837725.3342834273],[370754.95163312566,2837725.054058116],[370754.6714078147,2837724.768622002],[370755.2422800446,2837724.208171382],[370755.52250535565,2837724.4936074945],[370755.8079414695,2837724.213382184],[370756.08816678065,2837724.498818298],[370756.6590390083,2837723.938367676],[370756.3788136971,2837723.652931562],[370756.664249811,2837723.3727062508],[370756.94447512226,2837723.658142364],[370757.229911236,2837723.377917054],[370756.66946061375,2837722.8070448246],[370756.95489672746,2837722.5268195146],[370756.3944461101,2837721.9559472906],[370756.6798822242,2837721.6757219797],[370756.1194316016,2837721.104849752],[370756.40486771514,2837720.824624441],[370756.6850930266,2837721.110060554],[370756.9705291407,2837720.8298352445],[370756.69030382956,2837720.544399129],[370757.2611760567,2837719.983948509],[370757.54140136816,2837720.269384622],[370757.82683748164,2837719.9891593107],[370758.10706279316,2837720.274595424],[370758.3924989068,2837719.994370114],[370758.9529495287,2837720.5652423394],[370759.2383856427,2837720.285017029],[370759.7988362652,2837720.8558892556],[370760.0842723787,2837720.575663946],[370759.8040470677,2837720.2902278323],[370760.08948318125,2837720.010002521],[370760.3697084927,2837720.2954386347],[370760.9405807202,2837719.734988013],[370760.66035540873,2837719.449551899],[370760.9457915227,2837719.169326587],[370760.6655662116,2837718.883890473],[370761.2364384395,2837718.3234398523],[370761.7968890621,2837718.894312079],[370762.0823251756,2837718.614086769],[370761.8020998646,2837718.328650654],[370762.0875359781,2837718.048425344],[370762.3677612896,2837718.333861457],[370762.9386335171,2837717.773410835],[370762.6584082056,2837717.487974722],[370762.9438443197,2837717.2077494096],[370762.6636190087,2837716.922313297],[370763.2344912383,2837716.361862675],[370763.5147165496,2837716.6472987896],[370763.80015266343,2837716.367073479],[370764.0803779745,2837716.652509592],[370764.6512502021,2837716.0920589697],[370764.371024891,2837715.806622856],[370764.65646100487,2837715.5263975444],[370764.936686316,2837715.811833659],[370765.2221224298,2837715.531608348],[370764.66167180764,2837714.9607361197],[370764.94710792135,2837714.680510809],[370764.3866572512,2837714.109638532],[370764.6720933652,2837713.82941322],[370764.1116427427,2837713.2585409926],[370764.39707885624,2837712.978315682],[370764.6773041677,2837713.263751796],[370764.9627402817,2837712.9835264846],[370764.68251497066,2837712.69809037],[370765.2533871977,2837712.137639749],[370765.5336125094,2837712.4230758627],[370765.8190486228,2837712.142850552],[370766.0992739342,2837712.4282866647],[370766.3847100478,2837712.1480613546],[370766.66493536014,2837712.4334974675],[370766.9503715169,2837712.153272209],[370766.6701462059,2837711.867836096],[370766.9555823195,2837711.5876107845],[370766.6753570084,2837711.302174672],[370766.96079312207,2837711.0219493597],[370766.6805678111,2837710.736513246],[370766.3951316973,2837711.0167385577],[370766.1499372492,2837710.766984719],[370766.4353733632,2837710.486759407],[370766.1901788904,2837710.2370055458],[370766.4756150039,2837709.956780234],[370765.98522601195,2837709.457272459],[370766.27066212584,2837709.177047149],[370765.7802731819,2837708.677539327],[370766.0657092953,2837708.397314016],[370765.78548398445,2837708.111877902],[370765.50004787097,2837708.392103213],[370765.21982257086,2837708.1066671098],[370765.5052586574,2837707.8264417825],[370765.22503340483,2837707.541005727],[370765.5104695185,2837707.260780418],[370764.95001894434,2837706.6899082377],[370765.235455058,2837706.409682927],[370764.95523070276,2837706.1242459225],[370779.88363082526,2837691.468377433],[370777.72419246164,2837691.486980343],[370771.0414328884,2837698.042483036],[370751.5947504375,2837698.361217614],[370751.4172078022,2837720.096100731],[370743.4478170951,2837720.139908393],[370743.4789052133,2837725.795388574],[370732.7689683367,2837726.0683993194]]]}},{"type":"Feature","properties":{"FID_Munici":2,"CVE_ENT":"19","CVE_MUN":"039","NOM_MUN":"Monterrey","Area":1762.012090989272,"NOM_ABREV":"Mty","FID_AreasV":null,"Uso2019":"Parque","Nombre":"Parque de bolsillo Nodo Cultural","ParqueCat":null,"ParqueID":null,"area_2":null,"perimeter":null},"geometry":{"type":"Polygon","coordinates":[[[370807.8058179473,2837601.6671179566],[370813.78648580867,2837609.8750690212],[370817.49862448126,2837617.505576292],[370818.7360040387,2837626.20847918],[370818.6122660831,2837632.890328791],[370817.95233031904,2837636.726205419],[370813.8999122681,2837641.8819535747],[370809.50721483916,2837647.470784577],[370809.60001830605,2837649.3371654097],[370811.6932520578,2837654.2454376556],[370817.88014984544,2837659.93738362],[370855.372750438,2837625.45573995],[370856.83698291733,2837619.6813020087],[370817.40582101495,2837587.426941541],[370808.0120478736,2837597.4187814766],[370807.8058179473,2837601.6671179566]]]}},{"type":"Feature","properties":{"FID_Munici":2,"CVE_ENT":"19","CVE_MUN":"039","NOM_MUN":"Monterrey","Area":380.82648666758905,"NOM_ABREV":"Mty","FID_AreasV":null,"Uso2019":"Parque","Nombre":"Parque de bolsillo E3","ParqueCat":null,"ParqueID":null,"area_2":null,"perimeter":null},"geometry":{"type":"Polygon","coordinates":[[[370390.8797506981,2838065.441016454],[370399.6416515857,2838074.202516629],[370399.8298887411,2838074.3750120625],[370400.01482752827,2838074.5044692135],[370400.23983638606,2838074.6524202432],[370400.6852306321,2838074.8504588613],[370401.07591382007,2838074.9506340376],[370401.5482783058,2838074.9937864216],[370401.89195621863,2838074.96758676],[370402.33889162116,2838074.8674115837],[370402.72880423086,2838074.7117547714],[370403.11255221436,2838074.482122444],[370403.4336187291,2838074.207862653],[370417.159773949,2838060.544894343],[370417.54085993057,2838060.2726589595],[370417.9153609747,2838059.871958254],[370418.22513344325,2838059.3664589026],[370418.4247132188,2838058.733428844],[370418.4624715546,2838058.182080082],[370418.422401484,2838057.7567208707],[370418.30989705486,2838057.348314381],[370418.14653445914,2838056.9768956495],[370417.9640662951,2838056.681748461],[370416.3816390051,2838055.091182511],[370416.4260050799,2838055.046866622],[370408.8508871616,2838047.465628506],[370390.8797506981,2838065.441016454]]]}},{"type":"Feature","properties":{"FID_Munici":2,"CVE_ENT":"19","CVE_MUN":"039","NOM_MUN":"Monterrey","Area":929.8169302474707,"NOM_ABREV":"Mty","FID_AreasV":null,"Uso2019":"Parque","Nombre":"Parque de bolsillo E2","ParqueCat":null,"ParqueID":null,"area_2":null,"perimeter":null},"geometry":{"type":"Polygon","coordinates":[[[370331.27616245276,2838103.502871135],[370305.63131723873,2838127.051743422],[370308.2944357802,2838130.7998361844],[370326.04855938983,2838131.0957382442],[370330.6843583323,2838135.139733067],[370332.5090877034,2838135.410976622],[370337.24352066603,2838135.3616596116],[370338.8709819969,2838134.2766853916],[370360.5064418071,2838117.627114089],[370331.27616245276,2838103.502871135]]]}}]}